{
"type": "FeatureCollection",
"name": "les_farges_ug",
"crs": { "type": "name", "properties": { "name": "urn:ogc:def:crs:OGC:1.3:CRS84" } },
"features": [
{ "type": "Feature", "properties": { "visible": 1, "color": -16711936, "chunks": [ ], "created": 1786031466138, "minimapNameVisible": 1, "personal": 0, "announceInChat": 0, "mode": "Vertex", "fullscreenVisible": 1, "announceInTitle": 0, "modified": 1786034266074, "id": "5cd2c812-a5a9-42e0-9dfb-894e1ad3d15f", "name2": "10 ha 37 a 98 ca", "fullscreenNameVisible": 1, "dimension": "minecraft:overworld", "name1": "16", "minimapVisible": 1, "fullscreenOwnerVisible": 0, "minimapOwnerVisible": 0, "forest": "Forêt des Farges", "SURF": 10.3798 }, "geometry": { "type": "MultiPolygon", "coordinates": [ [ [ [ 240.399239940158992, -593.815041973238976 ], [ 693.317255825856137, -594.236831893043131 ], [ 693.331982907452925, -594.272071695435443 ], [ 701.675903361999303, -608.549446695437041 ], [ 710.019823816545681, -623.568503513620612 ], [ 716.694960180183102, -634.13746942271257 ], [ 735.422426089276087, -648.600264877259633 ], [ 757.672880634733247, -665.473526240897968 ], [ 783.631744271099819, -681.234264877263399 ], [ 809.405187452920927, -691.617810331810006 ], [ 826.093028362013797, -699.220048968174751 ], [ 840.370403362015395, -707.563969422721129 ], [ 852.05189199838037, -719.060037604540639 ], [ 866.143846543836617, -740.568810331815826 ], [ 878.0, -752.0 ], [ 875.0, -765.0 ], [ 879.0, -784.0 ], [ 878.0, -790.0 ], [ 871.0, -792.0 ], [ 853.0, -790.0 ], [ 806.0, -791.0 ], [ 793.0, -795.0 ], [ 768.0, -801.0 ], [ 748.0, -811.0 ], [ 733.0, -816.0 ], [ 717.0, -823.0 ], [ 701.0, -824.0 ], [ 687.0, -824.0 ], [ 674.0, -818.0 ], [ 662.0, -814.0 ], [ 631.0, -794.0 ], [ 622.0, -781.0 ], [ 618.0, -771.0 ], [ 613.0, -760.0 ], [ 606.0, -751.0 ], [ 589.0, -736.0 ], [ 572.0, -733.0 ], [ 553.0, -732.0 ], [ 540.0, -735.0 ], [ 519.0, -740.0 ], [ 505.0, -751.0 ], [ 495.0, -759.0 ], [ 489.0, -765.0 ], [ 483.0, -767.0 ], [ 436.0, -771.0 ], [ 413.0, -777.0 ], [ 293.0, -785.0 ], [ 274.0, -787.0 ], [ 251.0, -781.0 ], [ 240.441275636998625, -781.0 ], [ 240.399239940158992, -593.815041973238976 ] ] ] ] } },
{ "type": "Feature", "properties": { "visible": 1, "color": -16711936, "chunks": [ ], "created": 1786031466138, "minimapNameVisible": 1, "personal": 0, "announceInChat": 0, "mode": "Vertex", "fullscreenVisible": 1, "announceInTitle": 0, "modified": 1786034266074, "id": "5cd2c812-a5a9-42e0-9dfb-894e1ad3d15f", "name2": "11 ha 92 a 71 ca", "fullscreenNameVisible": 1, "dimension": "minecraft:overworld", "name1": "4", "minimapVisible": 1, "fullscreenOwnerVisible": 0, "minimapOwnerVisible": 0, "forest": "Forêt des Farges", "SURF": 11.9272 }, "geometry": { "type": "MultiPolygon", "coordinates": [ [ [ [ -308.929249576458574, -174.309749858819515 ], [ -567.558562045241501, 106.972586596914766 ], [ -457.236662205705443, 244.825445283300837 ], [ -0.810693260445242, -2.144770789819487 ], [ -5.0, -9.0 ], [ -20.0, -31.0 ], [ -31.0, -39.0 ], [ -56.0, -63.0 ], [ -78.0, -79.0 ], [ -91.0, -93.0 ], [ -114.0, -106.0 ], [ -131.0, -115.0 ], [ -144.0, -124.0 ], [ -166.0, -136.0 ], [ -182.0, -141.0 ], [ -201.0, -150.0 ], [ -211.0, -153.0 ], [ -239.0, -160.0 ], [ -262.0, -165.0 ], [ -274.0, -167.0 ], [ -293.0, -169.0 ], [ -308.929249576458574, -174.309749858819515 ] ] ] ] } },
{ "type": "Feature", "properties": { "visible": 1, "color": -16711936, "chunks": [ ], "created": 1786031466138, "minimapNameVisible": 1, "personal": 0, "announceInChat": 0, "mode": "Vertex", "fullscreenVisible": 1, "announceInTitle": 0, "modified": 1786034266074, "id": "5cd2c812-a5a9-42e0-9dfb-894e1ad3d15f", "name2": "9 ha 40 a 73 ca", "fullscreenNameVisible": 1, "dimension": "minecraft:overworld", "name1": "2", "minimapVisible": 1, "fullscreenOwnerVisible": 0, "minimapOwnerVisible": 0, "forest": "Forêt des Farges", "SURF": 9.4073 }, "geometry": { "type": "MultiPolygon", "coordinates": [ [ [ [ -753.983879601460671, 730.0 ], [ -746.457846638166075, 701.306999327439826 ], [ -735.888880729074003, 668.67299932743606 ], [ -733.66383527452831, 659.772817509253287 ], [ -730.697108001800643, 655.3227266001619 ], [ -724.021971638163564, 649.945533418343075 ], [ -715.863471638162537, 643.45581750925146 ], [ -704.181983001797562, 636.966101600159732 ], [ -698.248528456342342, 634.741056145614039 ], [ -687.308721638159341, 630.661806145613582 ], [ -676.554335274521804, 623.615828872885459 ], [ -669.879198910884725, 616.38443114561187 ], [ -664.316585274520435, 609.523874327429326 ], [ -660.793596638156373, 603.404999327428527 ], [ -657.085187547246619, 572.068942509243016 ], [ -654.674721638155461, 563.910442509242102 ], [ -651.337153456336864, 556.122783418332119 ], [ -641.324448910881188, 528.680556145601827 ], [ -634.463892092698643, 508.284306145599544 ], [ -625.749130729061221, 486.960953872869936 ], [ -621.11361936542437, 477.133669781959725 ], [ -609.98839209269579, 461.372931145594293 ], [ -593.300551183603147, 440.234999327410151 ], [ -582.360744365420032, 424.659681145590184 ], [ -575.685608001782953, 416.130340236498341 ], [ -572.440750047237088, 406.952027736497371 ], [ -566.692715956327334, 393.416334554677633 ], [ -559.461318229053859, 375.708681145584706 ], [ -551.395528456325678, 357.537476600128116 ], [ -547.594409138143305, 347.710192509217904 ], [ -546.203755729052205, 336.955806145580311 ], [ -546.01833527450674, 327.313942509215565 ], [ -543.144318229051919, 320.08254478194209 ], [ -539.435909138142392, 312.387595918304839 ], [ -530.535727319959619, 298.388351600121382 ], [ -529.145073910868518, 295.792465236484702 ], [ -527.661710274504799, 292.36218682739343 ], [ -525.900215956322768, 289.673590236484017 ], [ -520.43031254723121, 285.408919781938039 ], [ -510.324897774502745, 277.064999327391718 ], [ -497.067335274501261, 267.793976600117901 ], [ -473.889778456316776, 253.331181145570781 ], [ -457.236662205705443, 244.825445283300837 ], [ -567.558562045241501, 106.972586596914766 ], [ -663.701922789638616, -13.163462017268959 ], [ -665.0, -11.0 ], [ -677.0, 8.0 ], [ -676.0, 46.0 ], [ -678.0, 127.0 ], [ -679.0, 148.0 ], [ -683.0, 158.0 ], [ -684.0, 164.0 ], [ -686.0, 172.0 ], [ -692.0, 184.0 ], [ -699.0, 197.0 ], [ -705.0, 212.0 ], [ -709.0, 221.0 ], [ -713.0, 227.0 ], [ -722.0, 241.0 ], [ -729.0, 256.0 ], [ -736.0, 270.0 ], [ -744.0, 283.0 ], [ -744.0, 307.0 ], [ -743.0, 343.0 ], [ -741.0, 362.0 ], [ -736.0, 381.0 ], [ -733.0, 397.0 ], [ -732.0, 406.0 ], [ -737.0, 422.0 ], [ -742.0, 439.0 ], [ -750.0, 456.0 ], [ -756.0, 469.0 ], [ -763.0, 481.0 ], [ -770.0, 491.0 ], [ -780.0, 499.0 ], [ -786.0, 504.0 ], [ -791.0, 510.0 ], [ -793.0, 515.0 ], [ -792.0, 523.0 ], [ -788.0, 530.0 ], [ -782.0, 535.0 ], [ -771.0, 543.0 ], [ -758.0, 552.0 ], [ -742.0, 563.0 ], [ -730.0, 573.0 ], [ -726.0, 576.0 ], [ -727.0, 582.0 ], [ -729.0, 585.0 ], [ -734.0, 592.0 ], [ -738.0, 599.0 ], [ -742.0, 608.0 ], [ -746.0, 619.0 ], [ -751.0, 638.0 ], [ -754.0, 695.0 ], [ -751.0, 701.0 ], [ -751.0, 706.0 ], [ -755.0, 720.0 ], [ -756.0, 730.0 ], [ -753.983879601460671, 730.0 ] ] ] ] } },
{ "type": "Feature", "properties": { "visible": 1, "color": -16711936, "chunks": [ ], "created": 1786031466138, "minimapNameVisible": 1, "personal": 0, "announceInChat": 0, "mode": "Vertex", "fullscreenVisible": 1, "announceInTitle": 0, "modified": 1786034266074, "id": "5cd2c812-a5a9-42e0-9dfb-894e1ad3d15f", "name2": "14 ha 26 a 56 ca", "fullscreenNameVisible": 1, "dimension": "minecraft:overworld", "name1": "5", "minimapVisible": 1, "fullscreenOwnerVisible": 0, "minimapOwnerVisible": 0, "forest": "Forêt des Farges", "SURF": 14.2656 }, "geometry": { "type": "MultiPolygon", "coordinates": [ [ [ [ -0.810693260445242, -2.144770789819487 ], [ -457.236662205705443, 244.825445283300837 ], [ -309.844094709726278, 429.0 ], [ -292.0, 429.0 ], [ -278.0, 432.0 ], [ -252.0, 433.0 ], [ -238.0, 432.0 ], [ -232.0, 429.0 ], [ -221.0, 428.0 ], [ -217.0, 425.0 ], [ -208.0, 420.0 ], [ -198.0, 412.0 ], [ -188.0, 405.0 ], [ -177.0, 397.0 ], [ -164.0, 386.0 ], [ -149.0, 383.0 ], [ -141.0, 379.0 ], [ -130.0, 370.0 ], [ -121.0, 360.0 ], [ -117.0, 358.0 ], [ -113.0, 353.0 ], [ -99.0, 342.0 ], [ -90.0, 334.0 ], [ -85.0, 329.0 ], [ -73.0, 318.0 ], [ -70.0, 313.0 ], [ -69.0, 310.0 ], [ -61.0, 302.0 ], [ -47.0, 294.0 ], [ -18.0, 276.0 ], [ 4.0, 264.0 ], [ 14.0, 261.0 ], [ 33.0, 261.0 ], [ 49.0, 268.0 ], [ 68.0, 276.0 ], [ 82.0, 280.0 ], [ 90.0, 284.0 ], [ 189.0, 285.0 ], [ 236.0, 281.0 ], [ 255.0, 277.0 ], [ 263.0, 272.0 ], [ 284.0, 262.0 ], [ 267.0, 270.0 ], [ 267.0, 265.0 ], [ 249.0, 253.0 ], [ 228.0, 236.0 ], [ 205.0, 221.0 ], [ 187.0, 206.0 ], [ 174.0, 193.0 ], [ 163.0, 186.0 ], [ 144.0, 171.0 ], [ 124.0, 155.0 ], [ 106.0, 138.0 ], [ 85.0, 121.0 ], [ 71.0, 105.0 ], [ 60.0, 89.0 ], [ 52.0, 77.0 ], [ 40.0, 59.0 ], [ 26.0, 42.0 ], [ 17.0, 26.0 ], [ 6.0, 9.0 ], [ -0.810693260445242, -2.144770789819487 ] ] ] ] } },
{ "type": "Feature", "properties": { "visible": 1, "color": -16711936, "chunks": [ ], "created": 1786031466138, "minimapNameVisible": 1, "personal": 0, "announceInChat": 0, "mode": "Vertex", "fullscreenVisible": 1, "announceInTitle": 0, "modified": 1786034266074, "id": "5cd2c812-a5a9-42e0-9dfb-894e1ad3d15f", "name2": "10 ha 62 a 93 ca", "fullscreenNameVisible": 1, "dimension": "minecraft:overworld", "name1": "7", "minimapVisible": 1, "fullscreenOwnerVisible": 0, "minimapOwnerVisible": 0, "forest": "Forêt des Farges", "SURF": 10.6293 }, "geometry": { "type": "MultiPolygon", "coordinates": [ [ [ [ 506.150034043795017, 77.645300463732028 ], [ 506.52087495288589, -374.197676981496329 ], [ 273.68654507854626, -202.91483210305401 ], [ 274.733982900633691, 255.513788030443578 ], [ 284.0, 262.0 ], [ 295.0, 256.0 ], [ 316.0, 242.0 ], [ 328.0, 232.0 ], [ 336.0, 223.0 ], [ 343.0, 215.0 ], [ 348.0, 207.0 ], [ 354.0, 202.0 ], [ 366.0, 186.0 ], [ 377.0, 174.0 ], [ 387.480943134690506, 159.044880009195879 ], [ 414.552329498329925, 140.131993645557372 ], [ 445.332124952878985, 121.404527736464289 ], [ 506.150034043795017, 77.645300463732028 ] ] ] ] } },
{ "type": "Feature", "properties": { "visible": 1, "color": -16711936, "chunks": [ ], "created": 1786031466138, "minimapNameVisible": 1, "personal": 0, "announceInChat": 0, "mode": "Vertex", "fullscreenVisible": 1, "announceInTitle": 0, "modified": 1786034266074, "id": "5cd2c812-a5a9-42e0-9dfb-894e1ad3d15f", "name2": "6 ha 11 a 88 ca", "fullscreenNameVisible": 1, "dimension": "minecraft:overworld", "name1": "10", "minimapVisible": 1, "fullscreenOwnerVisible": 0, "minimapOwnerVisible": 0, "forest": "Forêt des Farges", "SURF": 6.1188 }, "geometry": { "type": "MultiPolygon", "coordinates": [ [ [ [ 125.975064869835876, -94.251979142288903 ], [ 125.456841589684686, -379.794048230285341 ], [ -173.72186201632033, -379.141657522062928 ], [ -286.741212725871492, -378.895206911228854 ], [ -308.92584096345422, -370.961121117926723 ], [ -307.428565388115373, -368.661733627227761 ], [ -298.621093797205333, -357.536506354499124 ], [ -289.257360842658784, -350.490529081771058 ], [ -273.311201751747831, -339.272591581769802 ], [ -261.537002888110123, -332.226614309041736 ], [ -246.425235842653876, -322.213909763586059 ], [ -236.78337220628913, -316.002324536312585 ], [ -224.823752888105957, -308.214665445402602 ], [ -216.665252888105016, -304.042705218129413 ], [ -208.970304024467765, -299.129063172674307 ], [ -201.738906297194262, -296.347756354492162 ], [ -190.891809706283937, -291.155983627218859 ], [ -181.24994606991919, -285.964210899945556 ], [ -165.581917660826434, -276.60047794539895 ], [ -149.635758569915538, -267.885716581761585 ], [ -137.119877888095914, -262.137682490851887 ], [ -123.306054024458049, -254.350023399941904 ], [ -108.565127888092718, -246.376943854486427 ], [ -95.863826751727643, -239.701807490849319 ], [ -83.904207433544457, -233.582932490848663 ], [ -75.931127888088994, -228.947421127211783 ], [ -70.090383569906507, -225.517142718120454 ], [ -60.355809706269035, -220.974341581756306 ], [ -55.627588115359387, -218.842006354483345 ], [ -47.932639251722151, -214.948176809028354 ], [ -39.681429024448477, -210.219955218118741 ], [ -30.688536978992907, -206.140705218118256 ], [ -20.346706407840351, -200.759590124185195 ], [ -19.285179024446148, -200.207250672663008 ], [ -11.868360842627119, -196.406131354480749 ], [ -4.822383569899042, -194.181085899935027 ], [ 4.077798248283795, -190.379966581752797 ], [ 11.309195975557341, -187.135108627206961 ], [ 21.229190293740295, -182.406887036297348 ], [ 30.036661884650393, -177.122404081751284 ], [ 37.360769839196685, -173.784835899932716 ], [ 45.241139157379422, -168.871193854477639 ], [ 52.843377793743926, -162.659608627204221 ], [ 59.425803930108316, -159.229330218112921 ], [ 66.008230066472692, -155.520921127203394 ], [ 73.146917566473491, -149.680176809020907 ], [ 84.272144839202042, -143.097750672656503 ], [ 93.079616430112139, -138.091398399928664 ], [ 99.198491430112824, -131.508972263564232 ], [ 104.297553930113409, -126.409909763563661 ], [ 112.316988589205238, -114.867486468107785 ], [ 120.382778361933418, -103.185997831742824 ], [ 125.975064869835876, -94.251979142288903 ] ] ] ] } },
{ "type": "Feature", "properties": { "visible": 1, "color": -16711936, "chunks": [ ], "created": 1786031466138, "minimapNameVisible": 1, "personal": 0, "announceInChat": 0, "mode": "Vertex", "fullscreenVisible": 1, "announceInTitle": 0, "modified": 1786034266074, "id": "5cd2c812-a5a9-42e0-9dfb-894e1ad3d15f", "name2": "10 ha 14 a 07 ca", "fullscreenNameVisible": 1, "dimension": "minecraft:overworld", "name1": "3", "minimapVisible": 1, "fullscreenOwnerVisible": 0, "minimapOwnerVisible": 0, "forest": "Forêt des Farges", "SURF": 10.1407 }, "geometry": { "type": "MultiPolygon", "coordinates": [ [ [ [ -567.558562045241501, 106.972586596914766 ], [ -308.929249576458574, -174.309749858819515 ], [ -311.0, -175.0 ], [ -323.0, -184.0 ], [ -332.0, -191.0 ], [ -345.0, -204.0 ], [ -371.0, -237.0 ], [ -389.0, -263.0 ], [ -392.0, -277.0 ], [ -395.0, -283.0 ], [ -400.0, -303.0 ], [ -403.0, -317.0 ], [ -407.0, -337.0 ], [ -414.0, -358.0 ], [ -424.0, -374.0 ], [ -431.0, -379.0 ], [ -440.0, -390.0 ], [ -450.0, -400.0 ], [ -462.0, -404.0 ], [ -476.0, -410.0 ], [ -483.0, -413.0 ], [ -489.0, -414.0 ], [ -495.0, -417.0 ], [ -508.0, -426.0 ], [ -519.0, -431.0 ], [ -527.0, -434.0 ], [ -537.0, -440.0 ], [ -548.0, -448.0 ], [ -559.0, -453.0 ], [ -568.0, -455.0 ], [ -581.0, -431.0 ], [ -591.0, -416.0 ], [ -593.0, -409.0 ], [ -595.0, -400.0 ], [ -596.0, -388.0 ], [ -599.0, -373.0 ], [ -605.0, -347.0 ], [ -607.0, -326.0 ], [ -607.0, -298.0 ], [ -606.0, -274.0 ], [ -598.0, -244.0 ], [ -586.0, -212.0 ], [ -583.0, -195.0 ], [ -580.0, -193.0 ], [ -577.0, -155.0 ], [ -603.0, -118.0 ], [ -609.0, -106.0 ], [ -643.0, -54.0 ], [ -646.0, -45.0 ], [ -651.0, -36.0 ], [ -656.0, -26.0 ], [ -663.701922789638616, -13.163462017268959 ], [ -567.558562045241501, 106.972586596914766 ] ] ] ] } },
{ "type": "Feature", "properties": { "visible": 1, "color": -16711936, "chunks": [ ], "created": 1786031466138, "minimapNameVisible": 1, "personal": 0, "announceInChat": 0, "mode": "Vertex", "fullscreenVisible": 1, "announceInTitle": 0, "modified": 1786034266074, "id": "5cd2c812-a5a9-42e0-9dfb-894e1ad3d15f", "name2": "6 ha 46 a 46 ca", "fullscreenNameVisible": 1, "dimension": "minecraft:overworld", "name1": "1", "minimapVisible": 1, "fullscreenOwnerVisible": 0, "minimapOwnerVisible": 0, "forest": "Forêt des Farges", "SURF": 6.4646 }, "geometry": { "type": "MultiPolygon", "coordinates": [ [ [ [ -457.236662205705443, 244.825445283300837 ], [ -473.889778456316776, 253.331181145570781 ], [ -497.067335274501261, 267.793976600117901 ], [ -510.324897774502745, 277.064999327391718 ], [ -520.43031254723121, 285.408919781938039 ], [ -525.900215956322768, 289.673590236484017 ], [ -527.661710274504799, 292.36218682739343 ], [ -529.145073910868518, 295.792465236484702 ], [ -530.535727319959619, 298.388351600121382 ], [ -539.435909138142392, 312.387595918304839 ], [ -543.144318229051919, 320.08254478194209 ], [ -546.01833527450674, 327.313942509215565 ], [ -546.203755729052205, 336.955806145580311 ], [ -547.594409138143305, 347.710192509217904 ], [ -551.395528456325678, 357.537476600128116 ], [ -559.461318229053859, 375.708681145584706 ], [ -566.692715956327334, 393.416334554677633 ], [ -572.440750047237088, 406.952027736497371 ], [ -575.685608001782953, 416.130340236498341 ], [ -582.360744365420032, 424.659681145590184 ], [ -593.300551183603147, 440.234999327410151 ], [ -609.98839209269579, 461.372931145594293 ], [ -621.11361936542437, 477.133669781959725 ], [ -625.749130729061221, 486.960953872869936 ], [ -634.463892092698643, 508.284306145599544 ], [ -641.324448910881188, 528.680556145601827 ], [ -651.337153456336864, 556.122783418332119 ], [ -654.674721638155461, 563.910442509242102 ], [ -657.085187547246619, 572.068942509243016 ], [ -660.793596638156373, 603.404999327428527 ], [ -664.316585274520435, 609.523874327429326 ], [ -669.879198910884725, 616.38443114561187 ], [ -676.554335274521804, 623.615828872885459 ], [ -687.308721638159341, 630.661806145613582 ], [ -698.248528456342342, 634.741056145614039 ], [ -704.181983001797562, 636.966101600159732 ], [ -715.863471638162537, 643.45581750925146 ], [ -724.021971638163564, 649.945533418343075 ], [ -730.697108001800643, 655.3227266001619 ], [ -733.66383527452831, 659.772817509253287 ], [ -735.888880729074003, 668.67299932743606 ], [ -746.457846638166075, 701.306999327439826 ], [ -753.983879601460671, 730.0 ], [ -752.0, 730.0 ], [ -749.0, 726.0 ], [ -746.0, 719.0 ], [ -744.0, 704.0 ], [ -734.0, 703.0 ], [ -729.0, 698.0 ], [ -729.0, 695.0 ], [ -726.0, 693.0 ], [ -719.0, 688.0 ], [ -715.0, 685.0 ], [ -713.0, 681.0 ], [ -707.0, 678.0 ], [ -703.0, 677.0 ], [ -690.0, 674.0 ], [ -669.0, 672.0 ], [ -640.0, 671.0 ], [ -631.0, 664.0 ], [ -623.0, 657.0 ], [ -617.0, 652.0 ], [ -608.0, 641.0 ], [ -602.0, 631.0 ], [ -597.0, 619.0 ], [ -593.0, 612.0 ], [ -582.0, 599.0 ], [ -571.0, 588.0 ], [ -563.0, 582.0 ], [ -549.0, 574.0 ], [ -532.0, 565.0 ], [ -518.0, 555.0 ], [ -496.0, 542.0 ], [ -480.0, 535.0 ], [ -464.0, 525.0 ], [ -451.0, 516.0 ], [ -431.0, 505.0 ], [ -415.0, 495.0 ], [ -408.0, 490.0 ], [ -405.0, 486.0 ], [ -405.0, 469.0 ], [ -405.0, 442.0 ], [ -404.0, 431.0 ], [ -399.0, 426.0 ], [ -389.0, 420.0 ], [ -380.0, 420.0 ], [ -364.0, 425.0 ], [ -355.0, 429.0 ], [ -333.0, 429.0 ], [ -310.0, 429.0 ], [ -309.844094709726278, 429.0 ], [ -457.236662205705443, 244.825445283300837 ] ] ] ] } },
{ "type": "Feature", "properties": { "visible": 1, "color": -16711936, "chunks": [ ], "created": 1786031466138, "minimapNameVisible": 1, "personal": 0, "announceInChat": 0, "mode": "Vertex", "fullscreenVisible": 1, "announceInTitle": 0, "modified": 1786034266074, "id": "5cd2c812-a5a9-42e0-9dfb-894e1ad3d15f", "name2": "6 ha 67 a 27 ca", "fullscreenNameVisible": 1, "dimension": "minecraft:overworld", "name1": "6", "minimapVisible": 1, "fullscreenOwnerVisible": 0, "minimapOwnerVisible": 0, "forest": "Forêt des Farges", "SURF": 6.6727 }, "geometry": { "type": "MultiPolygon", "coordinates": [ [ [ [ 274.733982900633691, 255.513788030443578 ], [ 273.68654507854626, -202.91483210305401 ], [ 125.975064869835876, -94.251979142288903 ], [ 6.889673734057808, -6.647695924232132 ], [ 31.0, 30.0 ], [ 53.0, 61.0 ], [ 74.0, 89.0 ], [ 136.0, 152.0 ], [ 158.0, 168.0 ], [ 180.0, 187.0 ], [ 200.0, 203.0 ], [ 245.0, 235.0 ], [ 264.0, 248.0 ], [ 274.733982900633691, 255.513788030443578 ] ] ] ] } },
{ "type": "Feature", "properties": { "visible": 1, "color": -16711936, "chunks": [ ], "created": 1786031466138, "minimapNameVisible": 1, "personal": 0, "announceInChat": 0, "mode": "Vertex", "fullscreenVisible": 1, "announceInTitle": 0, "modified": 1786034266074, "id": "5cd2c812-a5a9-42e0-9dfb-894e1ad3d15f", "name2": "6 ha 46 a 41 ca", "fullscreenNameVisible": 1, "dimension": "minecraft:overworld", "name1": "8", "minimapVisible": 1, "fullscreenOwnerVisible": 0, "minimapOwnerVisible": 0, "forest": "Forêt des Farges", "SURF": 6.4641 }, "geometry": { "type": "MultiPolygon", "coordinates": [ [ [ [ 506.52087495288589, -374.197676981496329 ], [ 506.150034043795017, 77.645300463732028 ], [ 545.273749952890398, 56.87820955463873 ], [ 591.0, 37.0 ], [ 597.0, 31.0 ], [ 605.0, 18.0 ], [ 609.0, 1.0 ], [ 637.0, -29.0 ], [ 646.0, -52.0 ], [ 656.0, -69.0 ], [ 664.0, -103.0 ], [ 664.0, -115.0 ], [ 669.0, -126.0 ], [ 670.0, -140.0 ], [ 665.0, -161.0 ], [ 660.0, -169.0 ], [ 659.0, -185.0 ], [ 687.0, -239.0 ], [ 706.0, -266.0 ], [ 735.0, -312.0 ], [ 735.511830743507858, -312.895703801138723 ], [ 515.28386725584653, -380.644107162599994 ], [ 506.52087495288589, -374.197676981496329 ] ] ] ] } },
{ "type": "Feature", "properties": { "visible": 1, "color": -16711936, "chunks": [ ], "created": 1786031466138, "minimapNameVisible": 1, "personal": 0, "announceInChat": 0, "mode": "Vertex", "fullscreenVisible": 1, "announceInTitle": 0, "modified": 1786034266074, "id": "5cd2c812-a5a9-42e0-9dfb-894e1ad3d15f", "name2": "8 ha 36 a 80 ca", "fullscreenNameVisible": 1, "dimension": "minecraft:overworld", "name1": "17", "minimapVisible": 1, "fullscreenOwnerVisible": 0, "minimapOwnerVisible": 0, "forest": "Forêt des Farges", "SURF": 8.368 }, "geometry": { "type": "MultiPolygon", "coordinates": [ [ [ [ 878.0, -752.0 ], [ 866.143846543836617, -740.568810331815826 ], [ 852.05189199838037, -719.060037604540639 ], [ 840.370403362015395, -707.563969422721129 ], [ 826.093028362013797, -699.220048968174751 ], [ 809.405187452920927, -691.617810331810006 ], [ 783.631744271099819, -681.234264877263399 ], [ 757.672880634733247, -665.473526240897968 ], [ 735.422426089276087, -648.600264877259633 ], [ 716.694960180183102, -634.13746942271257 ], [ 710.019823816545681, -623.568503513620612 ], [ 701.675903361999303, -608.549446695437041 ], [ 693.331982907452925, -594.272071695435443 ], [ 693.317255825856137, -594.236831893043131 ], [ 682.948437452906433, -569.42573078634166 ], [ 672.935732907450756, -550.142003513612167 ], [ 663.850130634722291, -535.679208059065104 ], [ 654.949948816539404, -522.514355786336409 ], [ 644.380982907447333, -510.276605786334983 ], [ 631.772391998354919, -498.224276240879021 ], [ 622.315948816535638, -490.436617149969095 ], [ 602.661380634715215, -475.602980786331102 ], [ 586.344380634713389, -465.034014877239031 ], [ 582.265130634712932, -460.954764877238517 ], [ 577.073357907439572, -452.796264877237604 ], [ 564.279346543801694, -433.141696695417181 ], [ 550.001971543800096, -411.81834442268746 ], [ 535.353755634707454, -392.95181317268532 ], [ 523.162360748342394, -384.42247226359342 ], [ 515.28386725584653, -380.644107162599994 ], [ 735.511830743507858, -312.895703801138723 ], [ 739.0, -319.0 ], [ 773.0, -365.0 ], [ 795.0, -391.0 ], [ 824.0, -429.0 ], [ 828.0, -437.0 ], [ 894.0, -531.0 ], [ 901.0, -544.0 ], [ 916.0, -603.0 ], [ 918.0, -619.0 ], [ 918.0, -633.0 ], [ 920.0, -654.0 ], [ 921.0, -685.0 ], [ 922.0, -729.0 ], [ 922.0, -752.0 ], [ 878.0, -752.0 ] ] ] ] } },
{ "type": "Feature", "properties": { "visible": 1, "color": -16711936, "chunks": [ ], "created": 1786031466138, "minimapNameVisible": 1, "personal": 0, "announceInChat": 0, "mode": "Vertex", "fullscreenVisible": 1, "announceInTitle": 0, "modified": 1786034266074, "id": "5cd2c812-a5a9-42e0-9dfb-894e1ad3d15f", "name2": "13 ha 23 a 20 ca", "fullscreenNameVisible": 1, "dimension": "minecraft:overworld", "name1": "14", "minimapVisible": 1, "fullscreenOwnerVisible": 0, "minimapOwnerVisible": 0, "forest": "Forêt des Farges", "SURF": 13.232 }, "geometry": { "type": "MultiPolygon", "coordinates": [ [ [ [ -174.23719893215187, -591.46046684464136 ], [ -173.72186201632033, -379.141657522062928 ], [ 125.456841589684686, -379.794048230285341 ], [ 240.351233999353667, -380.04458756724847 ], [ 240.399239940158992, -593.815041973238976 ], [ 240.441275636998625, -781.0 ], [ 158.0, -781.0 ], [ 131.0, -775.0 ], [ 107.0, -770.0 ], [ 95.0, -762.0 ], [ 64.0, -723.0 ], [ 45.0, -707.0 ], [ 24.0, -687.0 ], [ 13.0, -682.0 ], [ -3.0, -672.0 ], [ -30.0, -656.0 ], [ -64.0, -636.0 ], [ -89.0, -617.0 ], [ -115.0, -608.0 ], [ -128.0, -607.0 ], [ -150.0, -600.0 ], [ -160.0, -596.0 ], [ -165.0, -593.0 ], [ -174.23719893215187, -591.46046684464136 ] ] ] ] } },
{ "type": "Feature", "properties": { "visible": 1, "color": -16711936, "chunks": [ ], "created": 1786031466138, "minimapNameVisible": 1, "personal": 0, "announceInChat": 0, "mode": "Vertex", "fullscreenVisible": 1, "announceInTitle": 0, "modified": 1786034266074, "id": "5cd2c812-a5a9-42e0-9dfb-894e1ad3d15f", "name2": "7 ha 99 a 55 ca", "fullscreenNameVisible": 1, "dimension": "minecraft:overworld", "name1": "15", "minimapVisible": 1, "fullscreenOwnerVisible": 0, "minimapOwnerVisible": 0, "forest": "Forêt des Farges", "SURF": 7.9955 }, "geometry": { "type": "MultiPolygon", "coordinates": [ [ [ [ 693.317255825856137, -594.236831893043131 ], [ 240.399239940158992, -593.815041973238976 ], [ 240.351233999353667, -380.04458756724847 ], [ 515.28386725584653, -380.644107162599994 ], [ 523.162360748342394, -384.42247226359342 ], [ 535.353755634707454, -392.95181317268532 ], [ 550.001971543800096, -411.81834442268746 ], [ 564.279346543801694, -433.141696695417181 ], [ 577.073357907439572, -452.796264877237604 ], [ 582.265130634712932, -460.954764877238517 ], [ 586.344380634713389, -465.034014877239031 ], [ 602.661380634715215, -475.602980786331102 ], [ 622.315948816535638, -490.436617149969095 ], [ 631.772391998354919, -498.224276240879021 ], [ 644.380982907447333, -510.276605786334983 ], [ 654.949948816539404, -522.514355786336409 ], [ 663.850130634722291, -535.679208059065104 ], [ 672.935732907450756, -550.142003513612167 ], [ 682.948437452906433, -569.42573078634166 ], [ 693.317255825856137, -594.236831893043131 ] ] ] ] } },
{ "type": "Feature", "properties": { "visible": 1, "color": -16711936, "chunks": [ ], "created": 1786031466138, "minimapNameVisible": 1, "personal": 0, "announceInChat": 0, "mode": "Vertex", "fullscreenVisible": 1, "announceInTitle": 0, "modified": 1786034266074, "id": "5cd2c812-a5a9-42e0-9dfb-894e1ad3d15f", "name2": "4 ha 43 a 11 ca", "fullscreenNameVisible": 1, "dimension": "minecraft:overworld", "name1": "13", "minimapVisible": 1, "fullscreenOwnerVisible": 0, "minimapOwnerVisible": 0, "forest": "Forêt des Farges", "SURF": 4.4312 }, "geometry": { "type": "MultiPolygon", "coordinates": [ [ [ [ -173.72186201632033, -379.141657522062928 ], [ -174.23719893215187, -591.46046684464136 ], [ -183.0, -590.0 ], [ -199.0, -582.0 ], [ -248.0, -549.0 ], [ -256.0, -543.0 ], [ -259.0, -539.0 ], [ -293.0, -517.0 ], [ -306.0, -516.0 ], [ -315.0, -513.0 ], [ -335.0, -504.0 ], [ -347.0, -500.0 ], [ -357.0, -497.0 ], [ -370.0, -494.0 ], [ -385.0, -492.0 ], [ -393.0, -489.0 ], [ -397.0, -485.0 ], [ -413.0, -483.0 ], [ -425.0, -479.0 ], [ -435.0, -479.0 ], [ -436.0, -482.0 ], [ -441.0, -485.0 ], [ -452.0, -485.0 ], [ -451.0, -481.0 ], [ -445.0, -474.0 ], [ -442.0, -471.0 ], [ -436.0, -466.0 ], [ -431.0, -458.0 ], [ -421.0, -445.0 ], [ -408.0, -433.0 ], [ -406.0, -422.0 ], [ -390.0, -404.0 ], [ -389.0, -399.0 ], [ -385.0, -391.0 ], [ -374.0, -381.0 ], [ -375.0, -380.0 ], [ -379.0, -380.0 ], [ -385.0, -387.0 ], [ -389.0, -393.0 ], [ -391.0, -399.0 ], [ -393.0, -404.0 ], [ -406.0, -417.0 ], [ -409.0, -423.0 ], [ -410.0, -428.0 ], [ -413.0, -434.0 ], [ -419.0, -439.0 ], [ -426.0, -445.0 ], [ -428.0, -450.0 ], [ -432.0, -455.0 ], [ -436.0, -462.0 ], [ -443.0, -468.0 ], [ -447.0, -472.0 ], [ -451.0, -479.0 ], [ -454.0, -484.0 ], [ -458.0, -484.0 ], [ -462.0, -479.0 ], [ -463.0, -475.0 ], [ -469.0, -472.0 ], [ -478.0, -469.0 ], [ -503.0, -464.0 ], [ -542.0, -464.0 ], [ -543.0, -463.0 ], [ -543.0, -460.0 ], [ -539.0, -458.0 ], [ -525.0, -448.0 ], [ -514.0, -441.0 ], [ -501.0, -436.0 ], [ -484.0, -424.0 ], [ -469.0, -419.0 ], [ -451.0, -412.0 ], [ -431.0, -396.0 ], [ -417.0, -379.0 ], [ -405.0, -363.0 ], [ -396.0, -342.0 ], [ -374.494854750551553, -349.061026152545139 ], [ -360.092146798083547, -353.073209082161213 ], [ -333.858643027516848, -361.509080882892476 ], [ -316.369640513805678, -368.29892891762745 ], [ -308.92584096345422, -370.961121117926723 ], [ -286.741212725871492, -378.895206911228854 ], [ -173.72186201632033, -379.141657522062928 ] ] ] ] } },
{ "type": "Feature", "properties": { "visible": 1, "color": -16711936, "chunks": [ ], "created": 1786031466138, "minimapNameVisible": 1, "personal": 0, "announceInChat": 0, "mode": "Vertex", "fullscreenVisible": 1, "announceInTitle": 0, "modified": 1786034266074, "id": "5cd2c812-a5a9-42e0-9dfb-894e1ad3d15f", "name2": "4 ha 65 a 05 ca", "fullscreenNameVisible": 1, "dimension": "minecraft:overworld", "name1": "12", "minimapVisible": 1, "fullscreenOwnerVisible": 0, "minimapOwnerVisible": 0, "forest": "Forêt des Farges", "SURF": 4.6505 }, "geometry": { "type": "MultiPolygon", "coordinates": [ [ [ [ -92.796955775318978, -103.98918662630885 ], [ -20.346706407840351, -200.759590124185195 ], [ -30.688536978992907, -206.140705218118256 ], [ -39.681429024448477, -210.219955218118741 ], [ -47.932639251722151, -214.948176809028354 ], [ -55.627588115359387, -218.842006354483345 ], [ -60.355809706269035, -220.974341581756306 ], [ -70.090383569906507, -225.517142718120454 ], [ -75.931127888088994, -228.947421127211783 ], [ -83.904207433544457, -233.582932490848663 ], [ -95.863826751727643, -239.701807490849319 ], [ -108.565127888092718, -246.376943854486427 ], [ -123.306054024458049, -254.350023399941904 ], [ -137.119877888095914, -262.137682490851887 ], [ -149.635758569915538, -267.885716581761585 ], [ -165.581917660826434, -276.60047794539895 ], [ -181.24994606991919, -285.964210899945556 ], [ -190.891809706283937, -291.155983627218859 ], [ -201.738906297194262, -296.347756354492162 ], [ -208.970304024467765, -299.129063172674307 ], [ -216.665252888105016, -304.042705218129413 ], [ -224.823752888105957, -308.214665445402602 ], [ -236.78337220628913, -316.002324536312585 ], [ -246.425235842653876, -322.213909763586059 ], [ -261.537002888110123, -332.226614309041736 ], [ -273.311201751747831, -339.272591581769802 ], [ -289.257360842658784, -350.490529081771058 ], [ -298.621093797205333, -357.536506354499124 ], [ -307.428565388115373, -368.661733627227761 ], [ -308.92584096345422, -370.961121117926723 ], [ -316.369640513805678, -368.29892891762745 ], [ -333.858643027516848, -361.509080882892476 ], [ -360.092146798083547, -353.073209082161213 ], [ -374.494854750551553, -349.061026152545139 ], [ -396.0, -342.0 ], [ -390.0, -315.0 ], [ -388.0, -290.0 ], [ -384.0, -275.0 ], [ -371.0, -254.0 ], [ -359.0, -239.0 ], [ -349.0, -225.0 ], [ -328.0, -203.0 ], [ -319.0, -198.0 ], [ -307.0, -188.0 ], [ -291.0, -179.0 ], [ -276.0, -174.0 ], [ -263.0, -173.0 ], [ -220.0, -162.0 ], [ -184.0, -155.0 ], [ -172.0, -150.0 ], [ -160.0, -141.0 ], [ -148.0, -136.0 ], [ -139.0, -129.0 ], [ -125.0, -125.0 ], [ -100.0, -109.0 ], [ -92.796955775318978, -103.98918662630885 ] ] ] ] } },
{ "type": "Feature", "properties": { "visible": 1, "color": -16711936, "chunks": [ ], "created": 1786031466138, "minimapNameVisible": 1, "personal": 0, "announceInChat": 0, "mode": "Vertex", "fullscreenVisible": 1, "announceInTitle": 0, "modified": 1786034266074, "id": "5cd2c812-a5a9-42e0-9dfb-894e1ad3d15f", "name2": "5 ha 56 a 56 ca", "fullscreenNameVisible": 1, "dimension": "minecraft:overworld", "name1": "9", "minimapVisible": 1, "fullscreenOwnerVisible": 0, "minimapOwnerVisible": 0, "forest": "Forêt des Farges", "SURF": 5.5656 }, "geometry": { "type": "MultiPolygon", "coordinates": [ [ [ [ 125.456841589684686, -379.794048230285341 ], [ 125.975064869835876, -94.251979142288903 ], [ 273.68654507854626, -202.91483210305401 ], [ 506.52087495288589, -374.197676981496329 ], [ 515.28386725584653, -380.644107162599994 ], [ 240.351233999353667, -380.04458756724847 ], [ 125.456841589684686, -379.794048230285341 ] ] ] ] } },
{ "type": "Feature", "properties": { "visible": 1, "color": -16711936, "chunks": [ ], "created": 1786031466138, "minimapNameVisible": 1, "personal": 0, "announceInChat": 0, "mode": "Vertex", "fullscreenVisible": 1, "announceInTitle": 0, "modified": 1786034266074, "id": "5cd2c812-a5a9-42e0-9dfb-894e1ad3d15f", "name2": "2 ha 22 a 73 ca", "fullscreenNameVisible": 1, "dimension": "minecraft:overworld", "name1": "11", "minimapVisible": 1, "fullscreenOwnerVisible": 0, "minimapOwnerVisible": 0, "forest": "Forêt des Farges", "SURF": 2.2273 }, "geometry": { "type": "MultiPolygon", "coordinates": [ [ [ [ -20.346706407840351, -200.759590124185195 ], [ -92.796955775318978, -103.98918662630885 ], [ -77.0, -93.0 ], [ -39.0, -63.0 ], [ -18.0, -38.0 ], [ 6.0, -8.0 ], [ 6.889673734057808, -6.647695924232132 ], [ 125.975064869835876, -94.251979142288903 ], [ 120.382778361933418, -103.185997831742824 ], [ 112.316988589205238, -114.867486468107785 ], [ 104.297553930113409, -126.409909763563661 ], [ 99.198491430112824, -131.508972263564232 ], [ 93.079616430112139, -138.091398399928664 ], [ 84.272144839202042, -143.097750672656503 ], [ 73.146917566473491, -149.680176809020907 ], [ 66.008230066472692, -155.520921127203394 ], [ 59.425803930108316, -159.229330218112921 ], [ 52.843377793743926, -162.659608627204221 ], [ 45.241139157379422, -168.871193854477639 ], [ 37.360769839196685, -173.784835899932716 ], [ 30.036661884650393, -177.122404081751284 ], [ 21.229190293740295, -182.406887036297348 ], [ 11.309195975557341, -187.135108627206961 ], [ 4.077798248283795, -190.379966581752797 ], [ -4.822383569899042, -194.181085899935027 ], [ -11.868360842627119, -196.406131354480749 ], [ -19.285179024446148, -200.207250672663008 ], [ -20.346706407840351, -200.759590124185195 ] ] ] ] } }
]
}
