{
"type": "FeatureCollection",
"name": "pierre_percee_ug",
"crs": { "type": "name", "properties": { "name": "urn:ogc:def:crs:OGC:1.3:CRS84" } },
"features": [
{ "type": "Feature", "properties": { "visible": 1, "color": -32768, "chunks": [ ], "created": 1785916343036, "minimapNameVisible": 1, "personal": 0, "announceInChat": 0, "mode": "Vertex", "fullscreenVisible": 1, "announceInTitle": 0, "modified": 1785916416746, "id": "c36186a1-de76-454f-8fbe-6c3374c1fe31", "name2": "5 ha 78 a 40 ca", "fullscreenNameVisible": 1, "dimension": "minecraft:overworld", "name1": "6", "minimapVisible": 1, "fullscreenOwnerVisible": 0, "minimapOwnerVisible": 0, "forest": "la Pierre Percée", "SURF": 5.784 }, "geometry": { "type": "MultiPolygon", "coordinates": [ [ [ [ 0.0, -0.0 ], [ 482.0, -0.0 ], [ 417.0, -240.0 ], [ 0.0, -0.0 ] ] ] ] } },
{ "type": "Feature", "properties": { "visible": 1, "color": -32768, "chunks": [ ], "created": 1785917207943, "minimapNameVisible": 1, "personal": 0, "announceInChat": 0, "mode": "Vertex", "fullscreenVisible": 1, "announceInTitle": 0, "modified": 1785917242008, "id": "c603b809-ceaa-4b83-9f41-ebc1db48c76f", "name2": "6 ha 00 a 25 ca", "fullscreenNameVisible": 1, "dimension": "minecraft:overworld", "name1": "16", "minimapVisible": 1, "fullscreenOwnerVisible": 0, "minimapOwnerVisible": 0, "forest": "la Pierre Percée", "SURF": 6.0025 }, "geometry": { "type": "MultiPolygon", "coordinates": [ [ [ [ 0.0, -0.0 ], [ -490.0, -0.0 ], [ -423.0, 245.0 ], [ 0.0, -0.0 ] ] ] ] } },
{ "type": "Feature", "properties": { "visible": 1, "color": -32768, "chunks": [ ], "created": 1785917274730, "minimapNameVisible": 1, "personal": 0, "announceInChat": 0, "mode": "Vertex", "fullscreenVisible": 1, "announceInTitle": 0, "modified": 1785917319583, "id": "2668c206-6c86-41c9-a6d8-a4db52ae5109", "name2": "5 ha 98 a 37 ca", "fullscreenNameVisible": 1, "dimension": "minecraft:overworld", "name1": "18", "minimapVisible": 1, "fullscreenOwnerVisible": 0, "minimapOwnerVisible": 0, "forest": "la Pierre Percée", "SURF": 5.9838 }, "geometry": { "type": "MultiPolygon", "coordinates": [ [ [ [ 0.0, -0.0 ], [ -423.0, 245.0 ], [ -331.0, 338.0 ], [ -249.0, 420.0 ], [ -242.0, 420.0 ], [ 0.0, -0.0 ] ] ] ] } },
{ "type": "Feature", "properties": { "visible": 1, "color": -32768, "chunks": [ ], "created": 1785917552377, "minimapNameVisible": 1, "personal": 0, "announceInChat": 0, "mode": "Vertex", "fullscreenVisible": 1, "announceInTitle": 0, "modified": 1785917626830, "id": "5eba11db-7a6c-4d35-bff0-c0727f9a85a5", "name2": "2 ha 48 a 49 ca", "fullscreenNameVisible": 1, "dimension": "minecraft:overworld", "name1": "7", "minimapVisible": 1, "fullscreenOwnerVisible": 0, "minimapOwnerVisible": 0, "forest": "la Pierre Percée", "SURF": 2.4849 }, "geometry": { "type": "MultiPolygon", "coordinates": [ [ [ [ 511.0, -306.0 ], [ 495.0, -308.0 ], [ 488.0, -310.0 ], [ 468.0, -312.0 ], [ 312.0, -308.0 ], [ 304.047503725783145, -307.430095007451882 ], [ 417.0, -240.0 ], [ 482.0, -0.0 ], [ 490.0, -0.0 ], [ 494.0, -12.0 ], [ 504.0, -35.0 ], [ 510.0, -43.0 ], [ 511.0, -43.0 ], [ 511.0, -306.0 ] ] ] ] } },
{ "type": "Feature", "properties": { "visible": 1, "color": -32768, "chunks": [ ], "created": 1785916020150, "minimapNameVisible": 1, "personal": 0, "announceInChat": 0, "mode": "Vertex", "fullscreenVisible": 1, "announceInTitle": 0, "modified": 1785916119774, "id": "e72e72d8-fd2b-4853-a2c1-25998d151364", "name2": "5 ha 11 a 43 ca", "fullscreenNameVisible": 1, "dimension": "minecraft:overworld", "name1": "5", "minimapVisible": 1, "fullscreenOwnerVisible": 0, "minimapOwnerVisible": 0, "forest": "la Pierre Percée", "SURF": 5.1143 }, "geometry": { "type": "MultiPolygon", "coordinates": [ [ [ [ 490.0, -0.0 ], [ 0.0, -0.0 ], [ 359.0, 207.0 ], [ 364.0, 200.0 ], [ 401.0, 142.0 ], [ 419.0, 117.0 ], [ 424.0, 109.0 ], [ 438.0, 88.0 ], [ 452.0, 64.0 ], [ 455.0, 59.0 ], [ 460.0, 52.0 ], [ 470.0, 37.0 ], [ 479.0, 23.0 ], [ 490.0, -0.0 ] ] ] ] } },
{ "type": "Feature", "properties": { "visible": 1, "color": -32768, "chunks": [ ], "created": 1785917646857, "minimapNameVisible": 1, "personal": 0, "announceInChat": 0, "mode": "Vertex", "fullscreenVisible": 1, "announceInTitle": 0, "modified": 1785917704761, "id": "26322ac1-dcf3-444b-b364-f714572ac4d6", "name2": "7 ha 62 a 39 ca", "fullscreenNameVisible": 1, "dimension": "minecraft:overworld", "name1": "9", "minimapVisible": 1, "fullscreenOwnerVisible": 0, "minimapOwnerVisible": 0, "forest": "la Pierre Percée", "SURF": 7.6239 }, "geometry": { "type": "MultiPolygon", "coordinates": [ [ [ [ 511.0, -510.0 ], [ 0.0, -510.0 ], [ 0.0, -483.0 ], [ 209.0, -363.0 ], [ 304.047503725783145, -307.430095007451882 ], [ 312.0, -308.0 ], [ 468.0, -312.0 ], [ 488.0, -310.0 ], [ 495.0, -308.0 ], [ 511.0, -306.0 ], [ 511.0, -510.0 ] ] ] ] } },
{ "type": "Feature", "properties": { "visible": 1, "color": -32768, "chunks": [ ], "created": 1785916245570, "minimapNameVisible": 1, "personal": 0, "announceInChat": 0, "mode": "Vertex", "fullscreenVisible": 1, "announceInTitle": 0, "modified": 1785917738702, "id": "c6df739e-be4d-4256-a261-0ef97f995c73", "name2": "5 ha 33 a 01 ca", "fullscreenNameVisible": 1, "dimension": "minecraft:overworld", "name1": "2", "minimapVisible": 1, "fullscreenOwnerVisible": 0, "minimapOwnerVisible": 0, "forest": "la Pierre Percée", "SURF": 5.3301 }, "geometry": { "type": "MultiPolygon", "coordinates": [ [ [ [ 0.0, -0.0 ], [ 1.0, 420.0 ], [ 1.0, 487.0 ], [ 39.0, 487.0 ], [ 51.0, 481.0 ], [ 66.0, 472.0 ], [ 77.0, 462.0 ], [ 107.0, 445.0 ], [ 125.0, 427.0 ], [ 143.0, 411.0 ], [ 163.0, 394.0 ], [ 169.0, 387.0 ], [ 183.0, 375.0 ], [ 198.0, 364.0 ], [ 205.0, 354.0 ], [ 0.0, -0.0 ] ] ] ] } },
{ "type": "Feature", "properties": { "visible": 1, "color": -32768, "chunks": [ ], "created": 1785916433254, "minimapNameVisible": 1, "personal": 0, "announceInChat": 0, "mode": "Vertex", "fullscreenVisible": 1, "announceInTitle": 0, "modified": 1785916479377, "id": "0b697d69-9afe-4d88-a74b-ea08f299edc4", "name2": "5 ha 06 a 71 ca", "fullscreenNameVisible": 1, "dimension": "minecraft:overworld", "name1": "8", "minimapVisible": 1, "fullscreenOwnerVisible": 0, "minimapOwnerVisible": 0, "forest": "la Pierre Percée", "SURF": 5.0671 }, "geometry": { "type": "MultiPolygon", "coordinates": [ [ [ [ 209.0, -363.0 ], [ 0.0, -0.0 ], [ 417.0, -240.0 ], [ 304.047503725783145, -307.430095007451882 ], [ 209.0, -363.0 ] ] ] ] } },
{ "type": "Feature", "properties": { "visible": 1, "color": -32768, "chunks": [ ], "created": 1785916776985, "minimapNameVisible": 1, "personal": 0, "announceInChat": 0, "mode": "Vertex", "fullscreenVisible": 1, "announceInTitle": 0, "modified": 1785916829789, "id": "374ac0ef-e07f-41f1-a163-907105b7d0a7", "name2": "7 ha 47 a 88 ca", "fullscreenNameVisible": 1, "dimension": "minecraft:overworld", "name1": "11", "minimapVisible": 1, "fullscreenOwnerVisible": 0, "minimapOwnerVisible": 0, "forest": "la Pierre Percée", "SURF": 7.4788 }, "geometry": { "type": "MultiPolygon", "coordinates": [ [ [ [ 0.0, -483.0 ], [ 0.0, -510.0 ], [ -293.0, -510.0 ], [ -133.0, -231.0 ], [ 0.0, -0.0 ], [ 0.0, -483.0 ] ] ] ] } },
{ "type": "Feature", "properties": { "visible": 1, "color": -32768, "chunks": [ ], "created": 1785917050457, "minimapNameVisible": 1, "personal": 0, "announceInChat": 0, "mode": "Vertex", "fullscreenVisible": 1, "announceInTitle": 0, "modified": 1785917109159, "id": "f5732f26-7c4e-498f-a2ac-32f95dffd394", "name2": "4 ha 40 a 35 ca", "fullscreenNameVisible": 1, "dimension": "minecraft:overworld", "name1": "14", "minimapVisible": 1, "fullscreenOwnerVisible": 0, "minimapOwnerVisible": 0, "forest": "la Pierre Percée", "SURF": 4.4035 }, "geometry": { "type": "MultiPolygon", "coordinates": [ [ [ [ -133.0, -231.0 ], [ -400.0, -323.0 ], [ -423.0, -245.0 ], [ 0.0, -0.0 ], [ -133.0, -231.0 ] ] ] ] } },
{ "type": "Feature", "properties": { "visible": 1, "color": -32768, "chunks": [ ], "created": 1785917117100, "minimapNameVisible": 1, "personal": 0, "announceInChat": 0, "mode": "Vertex", "fullscreenVisible": 1, "announceInTitle": 0, "modified": 1785917151623, "id": "94484bd1-aedc-41da-9b01-5da1ece9499c", "name2": "6 ha 00 a 25 ca", "fullscreenNameVisible": 1, "dimension": "minecraft:overworld", "name1": "15", "minimapVisible": 1, "fullscreenOwnerVisible": 0, "minimapOwnerVisible": 0, "forest": "la Pierre Percée", "SURF": 6.0025 }, "geometry": { "type": "MultiPolygon", "coordinates": [ [ [ [ -423.0, -245.0 ], [ -490.0, -0.0 ], [ 0.0, -0.0 ], [ -423.0, -245.0 ] ] ] ] } },
{ "type": "Feature", "properties": { "visible": 1, "color": -32768, "chunks": [ ], "created": 1785916143384, "minimapNameVisible": 1, "personal": 0, "announceInChat": 0, "mode": "Vertex", "fullscreenVisible": 1, "announceInTitle": 0, "modified": 1785916238731, "id": "0cd87761-e80b-425d-a146-37ab8d66ee88", "name2": "4 ha 40 a 65 ca", "fullscreenNameVisible": 1, "dimension": "minecraft:overworld", "name1": "3", "minimapVisible": 1, "fullscreenOwnerVisible": 0, "minimapOwnerVisible": 0, "forest": "la Pierre Percée", "SURF": 4.4065 }, "geometry": { "type": "MultiPolygon", "coordinates": [ [ [ [ 0.0, -0.0 ], [ 205.0, 354.0 ], [ 232.0, 334.0 ], [ 258.0, 317.0 ], [ 281.0, 301.0 ], [ 286.0, 294.0 ], [ 301.0, 278.0 ], [ 322.0, 259.0 ], [ 335.0, 243.0 ], [ 359.0, 207.0 ], [ 0.0, -0.0 ] ] ] ] } },
{ "type": "Feature", "properties": { "visible": 1, "color": -32768, "chunks": [ ], "created": 1785916517872, "minimapNameVisible": 1, "personal": 0, "announceInChat": 0, "mode": "Vertex", "fullscreenVisible": 1, "announceInTitle": 0, "modified": 1785916582215, "id": "b5b5b66b-cceb-4ce0-8563-4adf450587a1", "name2": "5 ha 04 a 73 ca", "fullscreenNameVisible": 1, "dimension": "minecraft:overworld", "name1": "10", "minimapVisible": 1, "fullscreenOwnerVisible": 0, "minimapOwnerVisible": 0, "forest": "la Pierre Percée", "SURF": 5.0473 }, "geometry": { "type": "MultiPolygon", "coordinates": [ [ [ [ 0.0, -483.0 ], [ 0.0, -0.0 ], [ 209.0, -363.0 ], [ 0.0, -483.0 ] ] ] ] } },
{ "type": "Feature", "properties": { "visible": 1, "color": -32768, "chunks": [ ], "created": 1785917381195, "minimapNameVisible": 1, "personal": 0, "announceInChat": 0, "mode": "Vertex", "fullscreenVisible": 1, "announceInTitle": 0, "modified": 1785917725355, "id": "02725f8f-2687-4afd-be47-6dfe8cdd4cee", "name2": "3 ha 61 a 53 ca", "fullscreenNameVisible": 1, "dimension": "minecraft:overworld", "name1": "20", "minimapVisible": 1, "fullscreenOwnerVisible": 0, "minimapOwnerVisible": 0, "forest": "la Pierre Percée", "SURF": 3.6153 }, "geometry": { "type": "MultiPolygon", "coordinates": [ [ [ [ 1.0, 420.0 ], [ -249.0, 420.0 ], [ -331.0, 338.0 ], [ -345.0, 345.0 ], [ -355.0, 347.0 ], [ -366.0, 353.0 ], [ -375.0, 361.0 ], [ -384.0, 369.0 ], [ -394.0, 380.0 ], [ -397.0, 388.0 ], [ -400.0, 393.0 ], [ -400.0, 504.0 ], [ -374.0, 503.0 ], [ -362.0, 500.0 ], [ -337.0, 496.0 ], [ -280.0, 494.0 ], [ -267.0, 490.0 ], [ -221.0, 488.0 ], [ 1.0, 487.0 ], [ 1.0, 420.0 ] ] ] ] } },
{ "type": "Feature", "properties": { "visible": 1, "color": -32768, "chunks": [ ], "created": 1785915803491, "minimapNameVisible": 1, "personal": 0, "announceInChat": 0, "mode": "Vertex", "fullscreenVisible": 1, "announceInTitle": 0, "modified": 1785915883345, "id": "8c5770c5-0f65-4706-8fdb-0c639d7d98c4", "name2": "4 ha 53 a 55 ca", "fullscreenNameVisible": 1, "dimension": "minecraft:overworld", "name1": "1", "minimapVisible": 1, "fullscreenOwnerVisible": 0, "minimapOwnerVisible": 0, "forest": "la Pierre Percée", "SURF": 4.5355 }, "geometry": { "type": "MultiPolygon", "coordinates": [ [ [ [ 295.0, 302.0 ], [ 286.0, 309.0 ], [ 238.0, 342.0 ], [ 193.0, 381.0 ], [ 151.0, 422.0 ], [ 119.0, 448.0 ], [ 71.0, 482.0 ], [ 56.0, 489.0 ], [ 67.0, 490.0 ], [ 160.0, 490.0 ], [ 167.0, 493.0 ], [ 182.0, 495.0 ], [ 209.0, 496.0 ], [ 241.0, 500.0 ], [ 335.0, 502.0 ], [ 347.0, 505.0 ], [ 511.0, 508.0 ], [ 511.0, 503.0 ], [ 295.0, 302.0 ] ] ] ] } },
{ "type": "Feature", "properties": { "visible": 1, "color": -32768, "chunks": [ ], "created": 1785915895314, "minimapNameVisible": 1, "personal": 0, "announceInChat": 0, "mode": "Vertex", "fullscreenVisible": 1, "announceInTitle": 0, "modified": 1785916009967, "id": "ce0922ef-4355-4133-860e-794b74b973c8", "name2": "5 ha 36 a 15 ca", "fullscreenNameVisible": 1, "dimension": "minecraft:overworld", "name1": "4", "minimapVisible": 1, "fullscreenOwnerVisible": 0, "minimapOwnerVisible": 0, "forest": "la Pierre Percée", "SURF": 5.3615 }, "geometry": { "type": "MultiPolygon", "coordinates": [ [ [ [ 511.0, -4.0 ], [ 511.0, -25.0 ], [ 510.0, -25.0 ], [ 502.0, -8.0 ], [ 501.0, -4.0 ], [ 511.0, -4.0 ] ] ], [ [ [ 511.0, 6.0 ], [ 499.0, 6.0 ], [ 495.0, 11.0 ], [ 483.0, 35.0 ], [ 468.0, 57.0 ], [ 445.0, 89.0 ], [ 426.0, 122.0 ], [ 388.0, 178.0 ], [ 378.0, 196.0 ], [ 361.0, 223.0 ], [ 351.0, 241.0 ], [ 337.0, 258.0 ], [ 318.0, 277.0 ], [ 302.0, 295.0 ], [ 295.0, 302.0 ], [ 511.0, 503.0 ], [ 511.0, 6.0 ] ] ] ] } },
{ "type": "Feature", "properties": { "visible": 1, "color": -32768, "chunks": [ ], "created": 1785917159219, "minimapNameVisible": 1, "personal": 0, "announceInChat": 0, "mode": "Vertex", "fullscreenVisible": 1, "announceInTitle": 0, "modified": 1785917266051, "id": "96613119-4989-433e-9915-44e89b184f1f", "name2": "2 ha 30 a 60 ca", "fullscreenNameVisible": 1, "dimension": "minecraft:overworld", "name1": "13", "minimapVisible": 1, "fullscreenOwnerVisible": 0, "minimapOwnerVisible": 0, "forest": "la Pierre Percée", "SURF": 2.3061 }, "geometry": { "type": "MultiPolygon", "coordinates": [ [ [ [ -400.0, -323.0 ], [ -510.0, -361.0 ], [ -511.0, -0.0 ], [ -490.0, -0.0 ], [ -423.0, -245.0 ], [ -400.0, -323.0 ] ] ] ] } },
{ "type": "Feature", "properties": { "visible": 1, "color": -32768, "chunks": [ ], "created": 1785917323015, "minimapNameVisible": 1, "personal": 0, "announceInChat": 0, "mode": "Vertex", "fullscreenVisible": 1, "announceInTitle": 0, "modified": 1785917730056, "id": "34cb347e-e039-47d2-94f5-2dbb766c6307", "name2": "5 ha 10 a 30 ca", "fullscreenNameVisible": 1, "dimension": "minecraft:overworld", "name1": "19", "minimapVisible": 1, "fullscreenOwnerVisible": 0, "minimapOwnerVisible": 0, "forest": "la Pierre Percée", "SURF": 5.103 }, "geometry": { "type": "MultiPolygon", "coordinates": [ [ [ [ 0.0, -0.0 ], [ -242.0, 420.0 ], [ 1.0, 420.0 ], [ 0.0, -0.0 ] ] ] ] } },
{ "type": "Feature", "properties": { "visible": 1, "color": -32768, "chunks": [ ], "created": 1785917476872, "minimapNameVisible": 1, "personal": 0, "announceInChat": 0, "mode": "Vertex", "fullscreenVisible": 1, "announceInTitle": 0, "modified": 1785917533989, "id": "be69107c-e79f-4261-9566-8594e8c16903", "name2": "4 ha 55 a 19 ca", "fullscreenNameVisible": 1, "dimension": "minecraft:overworld", "name1": "17", "minimapVisible": 1, "fullscreenOwnerVisible": 0, "minimapOwnerVisible": 0, "forest": "la Pierre Percée", "SURF": 4.5519 }, "geometry": { "type": "MultiPolygon", "coordinates": [ [ [ [ -490.0, -0.0 ], [ -511.0, -0.0 ], [ -512.0, 491.0 ], [ -455.0, 504.0 ], [ -419.0, 506.0 ], [ -400.0, 504.0 ], [ -400.0, 393.0 ], [ -397.0, 388.0 ], [ -394.0, 380.0 ], [ -384.0, 369.0 ], [ -366.0, 353.0 ], [ -355.0, 347.0 ], [ -345.0, 345.0 ], [ -331.0, 338.0 ], [ -423.0, 245.0 ], [ -490.0, -0.0 ] ] ] ] } },
{ "type": "Feature", "properties": { "visible": 1, "color": -32768, "chunks": [ ], "created": 1785916848531, "minimapNameVisible": 1, "personal": 0, "announceInChat": 0, "mode": "Vertex", "fullscreenVisible": 1, "announceInTitle": 0, "modified": 1785917034774, "id": "bf6d3f30-7d67-43d4-b8db-60f2ded5a02d", "name2": "5 ha 83 a 71 ca", "fullscreenNameVisible": 1, "dimension": "minecraft:overworld", "name1": "12", "minimapVisible": 1, "fullscreenOwnerVisible": 0, "minimapOwnerVisible": 0, "forest": "la Pierre Percée", "SURF": 5.8371 }, "geometry": { "type": "MultiPolygon", "coordinates": [ [ [ [ -293.0, -510.0 ], [ -510.0, -510.0 ], [ -510.0, -361.0 ], [ -400.0, -323.0 ], [ -133.0, -231.0 ], [ -293.0, -510.0 ] ] ] ] } }
]
}
