{
"type": "FeatureCollection",
"name": "vidaillat_ug",
"crs": { "type": "name", "properties": { "name": "urn:ogc:def:crs:OGC:1.3:CRS84" } },
"features": [
{ "type": "Feature", "properties": { "fid": 1, "name1": "2.a", "forest": "Vidaillat", "SPECIES": null, "PARFOR": "2", "TYPE": null, "SSTYPE": null, "SURF": 10.678877084584379, "name2": "10 ha 67 a 88 ca" }, "geometry": { "type": "Polygon", "coordinates": [ [ [ 349.0, 602.0 ], [ 360.0, 578.0 ], [ 375.0, 538.0 ], [ 356.0, 545.0 ], [ 323.0, 562.0 ], [ 311.0, 571.0 ], [ 283.0, 611.0 ], [ 267.0, 622.0 ], [ 267.0, 624.0 ], [ -20.0, 624.0 ], [ -22.0, 626.0 ], [ -55.0, 657.0 ], [ -74.0, 683.0 ], [ -99.0, 720.0 ], [ -118.0, 745.0 ], [ -139.0, 793.0 ], [ -149.0, 821.0 ], [ -161.0, 838.0 ], [ -184.0, 863.0 ], [ -206.0, 876.0 ], [ -220.0, 881.0 ], [ -244.0, 891.0 ], [ -78.0, 891.0 ], [ -69.0, 876.0 ], [ -63.0, 872.0 ], [ -37.0, 869.0 ], [ -21.0, 868.0 ], [ -11.0, 876.0 ], [ 24.0, 915.0 ], [ 37.0, 929.0 ], [ 56.0, 944.0 ], [ 78.0, 954.0 ], [ 135.0, 897.0 ], [ 154.0, 875.0 ], [ 193.0, 838.0 ], [ 269.0, 744.0 ], [ 305.0, 691.0 ], [ 331.0, 642.0 ], [ 349.0, 602.0 ] ] ] } },
{ "type": "Feature", "properties": { "fid": 2, "name1": "4.a", "forest": "Vidaillat", "SPECIES": null, "PARFOR": "4", "TYPE": null, "SSTYPE": null, "SURF": 2.9310299869154779, "name2": "2 ha 93 a 10 ca" }, "geometry": { "type": "Polygon", "coordinates": [ [ [ -431.0, 1124.0 ], [ -430.0, 1118.0 ], [ -426.0, 1094.0 ], [ -415.0, 1077.0 ], [ -405.0, 1064.0 ], [ -393.0, 1039.0 ], [ -390.0, 1023.0 ], [ -382.0, 1000.0 ], [ -377.0, 981.0 ], [ -366.0, 963.0 ], [ -352.0, 943.0 ], [ -338.0, 925.0 ], [ -319.0, 910.0 ], [ -298.0, 898.0 ], [ -288.0, 894.0 ], [ -468.0, 894.0 ], [ -500.0, 894.0 ], [ -498.0, 907.0 ], [ -498.0, 922.0 ], [ -498.0, 945.0 ], [ -473.0, 948.0 ], [ -461.0, 951.0 ], [ -482.0, 977.0 ], [ -499.0, 1008.0 ], [ -509.0, 1029.0 ], [ -538.0, 1073.0 ], [ -543.0, 1082.0 ], [ -542.0, 1095.0 ], [ -538.0, 1111.0 ], [ -530.0, 1124.0 ], [ -433.0, 1124.0 ], [ -431.0, 1124.0 ] ] ] } },
{ "type": "Feature", "properties": { "fid": 3, "name1": "4.a", "forest": "Vidaillat", "SPECIES": null, "PARFOR": "4", "TYPE": null, "SSTYPE": null, "SURF": 2.5325327078564994, "name2": "2 ha 53 a 25 ca" }, "geometry": { "type": "Polygon", "coordinates": [ [ [ -424.0, 1124.0 ], [ -344.0, 1124.0 ], [ -339.0, 1124.0 ], [ -256.0, 1125.0 ], [ -257.0, 893.0 ], [ -289.0, 905.0 ], [ -309.0, 915.0 ], [ -335.0, 938.0 ], [ -353.0, 963.0 ], [ -365.0, 983.0 ], [ -382.0, 1036.0 ], [ -384.0, 1045.0 ], [ -391.0, 1065.0 ], [ -402.0, 1086.0 ], [ -415.0, 1102.0 ], [ -424.0, 1124.0 ] ] ] } },
{ "type": "Feature", "properties": { "fid": 4, "name1": "7.a", "forest": "Vidaillat", "SPECIES": null, "PARFOR": "7", "TYPE": null, "SSTYPE": null, "SURF": 4.8849166457695237, "name2": "4 ha 88 a 49 ca" }, "geometry": { "type": "Polygon", "coordinates": [ [ [ -228.0, 218.0 ], [ -259.0, 220.0 ], [ -275.0, 211.0 ], [ -302.0, 190.0 ], [ -326.0, 167.0 ], [ -332.0, 146.0 ], [ -336.0, 124.0 ], [ -338.0, 97.0 ], [ -328.0, 55.0 ], [ -327.0, 10.0 ], [ -330.0, -1.0 ], [ -359.0, 17.0 ], [ -373.0, 20.0 ], [ -409.0, 19.0 ], [ -440.0, 4.0 ], [ -492.0, -24.0 ], [ -492.0, -11.0 ], [ -483.0, -3.0 ], [ -464.0, 35.0 ], [ -467.0, 46.0 ], [ -483.0, 69.0 ], [ -502.0, 91.0 ], [ -520.0, 113.0 ], [ -531.0, 142.0 ], [ -539.0, 161.0 ], [ -541.0, 198.0 ], [ -550.0, 244.0 ], [ -555.0, 265.0 ], [ -504.0, 256.0 ], [ -477.0, 253.0 ], [ -455.0, 244.0 ], [ -437.0, 238.0 ], [ -416.0, 237.0 ], [ -336.0, 243.0 ], [ -315.0, 250.0 ], [ -300.0, 257.0 ], [ -258.0, 253.0 ], [ -235.0, 241.0 ], [ -228.0, 218.0 ] ] ] } },
{ "type": "Feature", "properties": { "fid": 5, "name1": "16.a", "forest": "Vidaillat", "SPECIES": null, "PARFOR": "16", "TYPE": null, "SSTYPE": null, "SURF": 9.5677846711278391, "name2": "9 ha 56 a 77 ca" }, "geometry": { "type": "Polygon", "coordinates": [ [ [ -742.0, 897.0 ], [ -1119.0, 897.0 ], [ -1119.0, 1109.0 ], [ -1119.0, 1123.0 ], [ -632.0, 1124.0 ], [ -654.0, 1099.0 ], [ -676.0, 1085.0 ], [ -712.0, 1083.0 ], [ -734.0, 1080.0 ], [ -763.0, 1061.0 ], [ -779.0, 1039.0 ], [ -790.0, 1018.0 ], [ -787.0, 1001.0 ], [ -763.0, 987.0 ], [ -741.0, 973.0 ], [ -725.0, 952.0 ], [ -709.0, 947.0 ], [ -681.0, 958.0 ], [ -653.0, 961.0 ], [ -626.0, 962.0 ], [ -607.0, 957.0 ], [ -595.0, 954.0 ], [ -585.0, 945.0 ], [ -577.0, 934.0 ], [ -580.0, 920.0 ], [ -581.0, 911.0 ], [ -577.0, 897.0 ], [ -742.0, 897.0 ] ] ] } },
{ "type": "Feature", "properties": { "fid": 6, "name1": "16.b", "forest": "Vidaillat", "SPECIES": null, "PARFOR": "16", "TYPE": null, "SSTYPE": null, "SURF": 0.13004911202414079, "name2": "0 ha 13 a 00 ca" }, "geometry": { "type": "Polygon", "coordinates": [ [ [ -578.0, 1002.0 ], [ -597.0, 1007.0 ], [ -599.0, 1025.0 ], [ -589.0, 1053.0 ], [ -580.0, 1061.0 ], [ -574.0, 1045.0 ], [ -563.0, 1031.0 ], [ -571.0, 1012.0 ], [ -578.0, 1002.0 ] ] ] } },
{ "type": "Feature", "properties": { "fid": 7, "name1": "9.a", "forest": "Vidaillat", "SPECIES": null, "PARFOR": "9", "TYPE": null, "SSTYPE": null, "SURF": 7.7817968658597465, "name2": "7 ha 78 a 17 ca" }, "geometry": { "type": "Polygon", "coordinates": [ [ [ -688.0, -100.0 ], [ -707.0, -116.0 ], [ -736.0, -139.0 ], [ -751.0, -160.0 ], [ -807.0, -160.0 ], [ -800.0, -135.0 ], [ -815.0, -117.0 ], [ -846.0, -96.0 ], [ -852.0, -96.0 ], [ -867.0, -88.0 ], [ -883.0, -88.0 ], [ -914.0, -86.0 ], [ -982.0, -68.0 ], [ -1007.0, -64.0 ], [ -1023.0, -51.0 ], [ -1025.0, 72.0 ], [ -1003.0, 104.0 ], [ -995.0, 130.0 ], [ -981.0, 146.0 ], [ -962.0, 160.0 ], [ -948.0, 165.0 ], [ -937.0, 165.0 ], [ -918.0, 149.0 ], [ -892.0, 132.0 ], [ -866.0, 119.0 ], [ -839.0, 114.0 ], [ -773.0, 109.0 ], [ -748.0, 114.0 ], [ -715.0, 132.0 ], [ -702.0, 143.0 ], [ -688.0, 146.0 ], [ -688.0, 30.0 ], [ -688.0, -100.0 ] ] ] } },
{ "type": "Feature", "properties": { "fid": 8, "name1": "9.b", "forest": "Vidaillat", "SPECIES": null, "PARFOR": "9", "TYPE": null, "SSTYPE": null, "SURF": 0.67324540307768388, "name2": "0 ha 67 a 32 ca" }, "geometry": { "type": "Polygon", "coordinates": [ [ [ -688.0, 158.0 ], [ -695.0, 157.0 ], [ -706.0, 152.0 ], [ -758.0, 123.0 ], [ -775.0, 121.0 ], [ -853.0, 124.0 ], [ -871.0, 132.0 ], [ -893.0, 145.0 ], [ -909.0, 153.0 ], [ -906.0, 159.0 ], [ -887.0, 149.0 ], [ -860.0, 136.0 ], [ -848.0, 135.0 ], [ -832.0, 137.0 ], [ -818.0, 143.0 ], [ -790.0, 155.0 ], [ -760.0, 168.0 ], [ -742.0, 179.0 ], [ -727.0, 198.0 ], [ -707.0, 206.0 ], [ -688.0, 219.0 ], [ -688.0, 158.0 ] ] ] } },
{ "type": "Feature", "properties": { "fid": 9, "name1": "14.a", "forest": "Vidaillat", "SPECIES": null, "PARFOR": "14", "TYPE": null, "SSTYPE": null, "SURF": 6.0233088728228257, "name2": "6 ha 02 a 33 ca" }, "geometry": { "type": "Polygon", "coordinates": [ [ [ -391.0, 688.0 ], [ -800.0, 688.0 ], [ -800.0, 897.0 ], [ -577.0, 897.0 ], [ -574.0, 877.0 ], [ -567.0, 852.0 ], [ -562.0, 830.0 ], [ -552.0, 808.0 ], [ -541.0, 796.0 ], [ -529.0, 782.0 ], [ -522.0, 776.0 ], [ -510.0, 775.0 ], [ -501.0, 766.0 ], [ -494.0, 752.0 ], [ -493.0, 746.0 ], [ -483.0, 742.0 ], [ -469.0, 742.0 ], [ -451.0, 742.0 ], [ -440.0, 747.0 ], [ -431.0, 738.0 ], [ -425.0, 728.0 ], [ -424.0, 719.0 ], [ -422.0, 713.0 ], [ -418.0, 710.0 ], [ -412.0, 710.0 ], [ -402.0, 704.0 ], [ -391.0, 688.0 ] ] ] } },
{ "type": "Feature", "properties": { "fid": 10, "name1": "12.a", "forest": "Vidaillat", "SPECIES": null, "PARFOR": "12", "TYPE": null, "SSTYPE": null, "SURF": 3.4599763752674138, "name2": "3 ha 45 a 99 ca" }, "geometry": { "type": "Polygon", "coordinates": [ [ [ -436.0, 528.0 ], [ -630.0, 332.0 ], [ -640.0, 351.0 ], [ -660.0, 393.0 ], [ -663.0, 401.0 ], [ -691.0, 428.0 ], [ -703.0, 435.0 ], [ -724.0, 456.0 ], [ -736.0, 462.0 ], [ -760.0, 466.0 ], [ -767.0, 470.0 ], [ -772.0, 478.0 ], [ -780.0, 489.0 ], [ -789.0, 499.0 ], [ -799.0, 506.0 ], [ -808.0, 517.0 ], [ -812.0, 528.0 ], [ -436.0, 528.0 ] ] ] } },
{ "type": "Feature", "properties": { "fid": 11, "name1": "5.a", "forest": "Vidaillat", "SPECIES": null, "PARFOR": "5", "TYPE": null, "SSTYPE": null, "SURF": 4.3504702949713536, "name2": "4 ha 35 a 04 ca" }, "geometry": { "type": "Polygon", "coordinates": [ [ [ -258.0, 886.0 ], [ -260.0, 842.0 ], [ -263.0, 789.0 ], [ -266.0, 758.0 ], [ -266.0, 722.0 ], [ -269.0, 697.0 ], [ -276.0, 685.0 ], [ -350.0, 618.0 ], [ -363.0, 635.0 ], [ -369.0, 652.0 ], [ -372.0, 677.0 ], [ -379.0, 677.0 ], [ -391.0, 688.0 ], [ -402.0, 704.0 ], [ -412.0, 710.0 ], [ -418.0, 710.0 ], [ -422.0, 713.0 ], [ -424.0, 719.0 ], [ -425.0, 728.0 ], [ -431.0, 738.0 ], [ -440.0, 747.0 ], [ -447.0, 761.0 ], [ -450.0, 768.0 ], [ -465.0, 780.0 ], [ -476.0, 785.0 ], [ -483.0, 791.0 ], [ -484.0, 795.0 ], [ -484.0, 800.0 ], [ -479.0, 805.0 ], [ -467.0, 814.0 ], [ -462.0, 820.0 ], [ -463.0, 830.0 ], [ -474.0, 848.0 ], [ -489.0, 868.0 ], [ -496.0, 882.0 ], [ -500.0, 894.0 ], [ -468.0, 894.0 ], [ -468.0, 893.0 ], [ -282.0, 893.0 ], [ -270.0, 890.0 ], [ -258.0, 886.0 ] ] ] } },
{ "type": "Feature", "properties": { "fid": 12, "name1": "5.b", "forest": "Vidaillat", "SPECIES": null, "PARFOR": "5", "TYPE": null, "SSTYPE": null, "SURF": 7.7559970420210478, "name2": "7 ha 75 a 59 ca" }, "geometry": { "type": "Polygon", "coordinates": [ [ [ -246.0, 877.0 ], [ -232.0, 872.0 ], [ -201.0, 859.0 ], [ -179.0, 842.0 ], [ -166.0, 823.0 ], [ -155.0, 792.0 ], [ -144.0, 767.0 ], [ -125.0, 734.0 ], [ -89.0, 682.0 ], [ -40.0, 630.0 ], [ -56.0, 627.0 ], [ -79.0, 646.0 ], [ -118.0, 693.0 ], [ -156.0, 723.0 ], [ -202.0, 758.0 ], [ -215.0, 737.0 ], [ -223.0, 709.0 ], [ -225.0, 695.0 ], [ -215.0, 691.0 ], [ -217.0, 687.0 ], [ -228.0, 667.0 ], [ -239.0, 640.0 ], [ -79.0, 546.0 ], [ -68.0, 539.0 ], [ -57.0, 522.0 ], [ -51.0, 505.0 ], [ -52.0, 480.0 ], [ -66.0, 446.0 ], [ -67.0, 411.0 ], [ -75.0, 401.0 ], [ -68.0, 391.0 ], [ -11.0, 345.0 ], [ -17.0, 333.0 ], [ -79.0, 387.0 ], [ -102.0, 365.0 ], [ -144.0, 342.0 ], [ -36.0, 223.0 ], [ -40.0, 216.0 ], [ -140.0, 322.0 ], [ -154.0, 336.0 ], [ -174.0, 354.0 ], [ -207.0, 374.0 ], [ -232.0, 385.0 ], [ -260.0, 400.0 ], [ -272.0, 413.0 ], [ -282.0, 429.0 ], [ -286.0, 447.0 ], [ -290.0, 472.0 ], [ -305.0, 506.0 ], [ -308.0, 524.0 ], [ -314.0, 537.0 ], [ -326.0, 547.0 ], [ -338.0, 559.0 ], [ -341.0, 577.0 ], [ -349.0, 595.0 ], [ -309.0, 635.0 ], [ -306.0, 638.0 ], [ -265.0, 679.0 ], [ -258.0, 691.0 ], [ -254.0, 776.0 ], [ -251.0, 811.0 ], [ -249.0, 859.0 ], [ -246.0, 877.0 ] ] ] } },
{ "type": "Feature", "properties": { "fid": 13, "name1": "8.a", "forest": "Vidaillat", "SPECIES": null, "PARFOR": "8", "TYPE": null, "SSTYPE": null, "SURF": 5.8404601213148348, "name2": "5 ha 84 a 04 ca" }, "geometry": { "type": "Polygon", "coordinates": [ [ [ -688.0, 146.0 ], [ -669.0, 142.0 ], [ -663.0, 136.0 ], [ -658.0, 128.0 ], [ -651.0, 101.0 ], [ -635.0, 68.0 ], [ -611.0, 47.0 ], [ -589.0, 31.0 ], [ -567.0, 5.0 ], [ -558.0, -18.0 ], [ -541.0, -35.0 ], [ -528.0, -43.0 ], [ -510.0, -42.0 ], [ -480.0, -29.0 ], [ -436.0, -5.0 ], [ -414.0, 4.0 ], [ -394.0, 9.0 ], [ -375.0, 9.0 ], [ -361.0, 6.0 ], [ -344.0, -4.0 ], [ -328.0, -15.0 ], [ -335.0, -33.0 ], [ -337.0, -54.0 ], [ -349.0, -77.0 ], [ -342.0, -83.0 ], [ -314.0, -94.0 ], [ -303.0, -100.0 ], [ -304.0, -109.0 ], [ -326.0, -126.0 ], [ -352.0, -159.0 ], [ -609.0, -161.0 ], [ -628.0, -144.0 ], [ -633.0, -120.0 ], [ -631.0, -96.0 ], [ -655.0, -81.0 ], [ -681.0, -85.0 ], [ -688.0, -100.0 ], [ -688.0, 146.0 ] ] ] } },
{ "type": "Feature", "properties": { "fid": 14, "name1": "8.b", "forest": "Vidaillat", "SPECIES": null, "PARFOR": "8", "TYPE": null, "SSTYPE": null, "SURF": 1.0469428514700054, "name2": "1 ha 04 a 69 ca" }, "geometry": { "type": "Polygon", "coordinates": [ [ [ -688.0, 158.0 ], [ -688.0, 219.0 ], [ -675.0, 223.0 ], [ -662.0, 237.0 ], [ -646.0, 241.0 ], [ -634.0, 243.0 ], [ -620.0, 239.0 ], [ -612.0, 234.0 ], [ -603.0, 223.0 ], [ -599.0, 214.0 ], [ -597.0, 203.0 ], [ -603.0, 186.0 ], [ -611.0, 169.0 ], [ -621.0, 154.0 ], [ -626.0, 137.0 ], [ -628.0, 125.0 ], [ -624.0, 112.0 ], [ -612.0, 91.0 ], [ -595.0, 73.0 ], [ -576.0, 47.0 ], [ -556.0, 21.0 ], [ -551.0, 8.0 ], [ -544.0, -4.0 ], [ -534.0, -9.0 ], [ -492.0, -11.0 ], [ -492.0, -24.0 ], [ -507.0, -29.0 ], [ -523.0, -29.0 ], [ -532.0, -25.0 ], [ -574.0, 29.0 ], [ -594.0, 48.0 ], [ -612.0, 61.0 ], [ -624.0, 77.0 ], [ -633.0, 95.0 ], [ -642.0, 118.0 ], [ -654.0, 141.0 ], [ -664.0, 152.0 ], [ -681.0, 158.0 ], [ -688.0, 158.0 ] ] ] } },
{ "type": "Feature", "properties": { "fid": 15, "name1": "6.a", "forest": "Vidaillat", "SPECIES": null, "PARFOR": "5", "TYPE": null, "SSTYPE": null, "SURF": 9.8945824397513622, "name2": "9 ha 89 a 45 ca" }, "geometry": { "type": "Polygon", "coordinates": [ [ [ -137.0, 249.0 ], [ -112.0, 235.0 ], [ -95.0, 227.0 ], [ -96.0, 196.0 ], [ -94.0, 159.0 ], [ -149.0, 150.0 ], [ -183.0, 157.0 ], [ -192.0, 166.0 ], [ -202.0, 191.0 ], [ -228.0, 218.0 ], [ -235.0, 241.0 ], [ -258.0, 253.0 ], [ -300.0, 257.0 ], [ -315.0, 250.0 ], [ -336.0, 243.0 ], [ -416.0, 237.0 ], [ -437.0, 238.0 ], [ -455.0, 244.0 ], [ -477.0, 253.0 ], [ -504.0, 256.0 ], [ -555.0, 265.0 ], [ -560.0, 274.0 ], [ -568.0, 281.0 ], [ -581.0, 285.0 ], [ -597.0, 295.0 ], [ -610.0, 305.0 ], [ -621.0, 313.0 ], [ -640.0, 308.0 ], [ -376.0, 568.0 ], [ -365.0, 545.0 ], [ -370.0, 524.0 ], [ -308.0, 524.0 ], [ -305.0, 506.0 ], [ -290.0, 472.0 ], [ -286.0, 447.0 ], [ -282.0, 429.0 ], [ -272.0, 413.0 ], [ -260.0, 400.0 ], [ -232.0, 385.0 ], [ -207.0, 374.0 ], [ -174.0, 354.0 ], [ -154.0, 336.0 ], [ -153.0, 314.0 ], [ -146.0, 281.0 ], [ -137.0, 249.0 ] ] ] } },
{ "type": "Feature", "properties": { "fid": 16, "name1": "11.a", "forest": "Vidaillat", "SPECIES": null, "PARFOR": "11", "TYPE": null, "SSTYPE": null, "SURF": 0.31539784646223767, "name2": "0 ha 31 a 53 ca" }, "geometry": { "type": "Polygon", "coordinates": [ [ [ -927.0, 351.0 ], [ -917.0, 348.0 ], [ -901.0, 336.0 ], [ -894.0, 323.0 ], [ -886.0, 303.0 ], [ -888.0, 290.0 ], [ -894.0, 278.0 ], [ -904.0, 258.0 ], [ -927.0, 233.0 ], [ -927.0, 351.0 ] ] ] } },
{ "type": "Feature", "properties": { "fid": 17, "name1": "11.b", "forest": "Vidaillat", "SPECIES": null, "PARFOR": "11", "TYPE": null, "SSTYPE": null, "SURF": 7.3305999466341234, "name2": "7 ha 33 a 05 ca" }, "geometry": { "type": "Polygon", "coordinates": [ [ [ -927.0, 364.0 ], [ -927.0, 688.0 ], [ -800.0, 688.0 ], [ -800.0, 556.0 ], [ -808.0, 548.0 ], [ -811.0, 541.0 ], [ -812.0, 528.0 ], [ -808.0, 517.0 ], [ -799.0, 506.0 ], [ -789.0, 499.0 ], [ -780.0, 489.0 ], [ -772.0, 478.0 ], [ -767.0, 470.0 ], [ -760.0, 466.0 ], [ -736.0, 462.0 ], [ -724.0, 456.0 ], [ -703.0, 435.0 ], [ -691.0, 428.0 ], [ -663.0, 401.0 ], [ -660.0, 393.0 ], [ -640.0, 351.0 ], [ -630.0, 332.0 ], [ -641.0, 323.0 ], [ -736.0, 322.0 ], [ -750.0, 317.0 ], [ -765.0, 308.0 ], [ -789.0, 285.0 ], [ -805.0, 265.0 ], [ -814.0, 255.0 ], [ -815.0, 240.0 ], [ -832.0, 225.0 ], [ -916.0, 226.0 ], [ -889.0, 261.0 ], [ -877.0, 284.0 ], [ -874.0, 307.0 ], [ -886.0, 336.0 ], [ -901.0, 352.0 ], [ -927.0, 364.0 ] ] ] } },
{ "type": "Feature", "properties": { "fid": 18, "name1": "10.a", "forest": "Vidaillat", "SPECIES": null, "PARFOR": "10", "TYPE": null, "SSTYPE": null, "SURF": 1.4929398062010073, "name2": "1 ha 49 a 29 ca" }, "geometry": { "type": "Polygon", "coordinates": [ [ [ -1121.0, 349.0 ], [ -1113.0, 343.0 ], [ -1103.0, 333.0 ], [ -1084.0, 328.0 ], [ -1063.0, 328.0 ], [ -1038.0, 332.0 ], [ -1022.0, 336.0 ], [ -1014.0, 338.0 ], [ -1000.0, 341.0 ], [ -987.0, 344.0 ], [ -965.0, 350.0 ], [ -941.0, 354.0 ], [ -927.0, 351.0 ], [ -927.0, 233.0 ], [ -933.0, 227.0 ], [ -948.0, 234.0 ], [ -955.0, 238.0 ], [ -972.0, 254.0 ], [ -998.0, 265.0 ], [ -1016.0, 266.0 ], [ -1042.0, 269.0 ], [ -1073.0, 272.0 ], [ -1108.0, 280.0 ], [ -1120.0, 284.0 ], [ -1121.0, 349.0 ] ] ] } },
{ "type": "Feature", "properties": { "fid": 19, "name1": "10.b", "forest": "Vidaillat", "SPECIES": null, "PARFOR": "10", "TYPE": null, "SSTYPE": null, "SURF": 6.5342553840779951, "name2": "6 ha 53 a 42 ca" }, "geometry": { "type": "Polygon", "coordinates": [ [ [ -1121.0, 356.0 ], [ -1120.0, 688.0 ], [ -927.0, 688.0 ], [ -927.0, 364.0 ], [ -947.0, 364.0 ], [ -983.0, 358.0 ], [ -1016.0, 349.0 ], [ -1074.0, 337.0 ], [ -1095.0, 339.0 ], [ -1114.0, 351.0 ], [ -1121.0, 356.0 ] ] ] } },
{ "type": "Feature", "properties": { "fid": 20, "name1": "3.a", "forest": "Vidaillat", "SPECIES": null, "PARFOR": "3", "TYPE": null, "SSTYPE": null, "SURF": 4.7794173661190289, "name2": "4 ha 77 a 94 ca" }, "geometry": { "type": "Polygon", "coordinates": [ [ [ 56.0, 944.0 ], [ 37.0, 929.0 ], [ 24.0, 915.0 ], [ -11.0, 876.0 ], [ -21.0, 868.0 ], [ -37.0, 869.0 ], [ -63.0, 872.0 ], [ -69.0, 876.0 ], [ -78.0, 891.0 ], [ -244.0, 891.0 ], [ -242.0, 1055.0 ], [ -242.0, 1061.0 ], [ -242.0, 1118.0 ], [ -190.0, 1096.0 ], [ -130.0, 1068.0 ], [ -84.0, 1049.0 ], [ -37.0, 1027.0 ], [ -4.0, 1010.0 ], [ 39.0, 983.0 ], [ 65.0, 964.0 ], [ 78.0, 954.0 ], [ 56.0, 944.0 ] ] ] } },
{ "type": "Feature", "properties": { "fid": 21, "name1": "13.a", "forest": "Vidaillat", "SPECIES": null, "PARFOR": "13", "TYPE": null, "SSTYPE": null, "SURF": 6.5929049836182934, "name2": "6 ha 59 a 29 ca" }, "geometry": { "type": "Polygon", "coordinates": [ [ [ -615.0, 528.0 ], [ -812.0, 528.0 ], [ -811.0, 541.0 ], [ -808.0, 548.0 ], [ -800.0, 556.0 ], [ -800.0, 688.0 ], [ -391.0, 688.0 ], [ -379.0, 677.0 ], [ -382.0, 662.0 ], [ -378.0, 646.0 ], [ -379.0, 634.0 ], [ -378.0, 612.0 ], [ -373.0, 593.0 ], [ -436.0, 528.0 ], [ -615.0, 528.0 ] ] ] } },
{ "type": "Feature", "properties": { "fid": 22, "name1": "1.a", "forest": "Vidaillat", "SPECIES": null, "PARFOR": "1", "TYPE": null, "SSTYPE": null, "SURF": 6.943152592126216, "name2": "6 ha 94 a 31 ca" }, "geometry": { "type": "Polygon", "coordinates": [ [ [ -20.0, 624.0 ], [ 267.0, 624.0 ], [ 267.0, 622.0 ], [ 260.0, 620.0 ], [ 261.0, 602.0 ], [ 274.0, 560.0 ], [ 272.0, 537.0 ], [ 269.0, 525.0 ], [ 262.0, 511.0 ], [ 247.0, 487.0 ], [ 236.0, 458.0 ], [ 229.0, 430.0 ], [ 237.0, 391.0 ], [ 213.0, 356.0 ], [ 188.0, 327.0 ], [ 180.0, 309.0 ], [ 176.0, 292.0 ], [ 169.0, 286.0 ], [ 157.0, 286.0 ], [ 135.0, 278.0 ], [ 114.0, 274.0 ], [ 100.0, 281.0 ], [ 90.0, 287.0 ], [ 71.0, 310.0 ], [ 59.0, 329.0 ], [ 49.0, 362.0 ], [ 39.0, 377.0 ], [ 34.0, 390.0 ], [ 30.0, 411.0 ], [ 29.0, 436.0 ], [ 27.0, 456.0 ], [ 28.0, 489.0 ], [ 31.0, 561.0 ], [ 10.0, 561.0 ], [ 8.0, 570.0 ], [ -1.0, 595.0 ], [ -11.0, 615.0 ], [ -20.0, 624.0 ] ] ] } },
{ "type": "Feature", "properties": { "fid": 23, "name1": "0.a", "forest": "Vidaillat", "SPECIES": null, "PARFOR": "0", "TYPE": null, "SSTYPE": null, "SURF": 1.9265368455986809, "name2": "1 ha 92 a 65 ca" }, "geometry": { "type": "Polygon", "coordinates": [ [ [ -64.0, 605.0 ], [ -79.0, 546.0 ], [ -239.0, 640.0 ], [ -228.0, 667.0 ], [ -217.0, 687.0 ], [ -215.0, 691.0 ], [ -225.0, 695.0 ], [ -223.0, 709.0 ], [ -215.0, 737.0 ], [ -202.0, 758.0 ], [ -156.0, 723.0 ], [ -118.0, 693.0 ], [ -79.0, 646.0 ], [ -56.0, 627.0 ], [ -64.0, 605.0 ] ] ] } },
{ "type": "Feature", "properties": { "fid": 24, "name1": "0.b", "forest": "Vidaillat", "SPECIES": null, "PARFOR": "0", "TYPE": null, "SSTYPE": null, "SURF": 5.69551111102726, "name2": "5 ha 69 a 55 ca" }, "geometry": { "type": "Polygon", "coordinates": [ [ [ -86.0, 342.0 ], [ -83.0, 316.0 ], [ -86.0, 310.0 ], [ -20.0, 283.0 ], [ -20.0, 259.0 ], [ -20.0, 231.0 ], [ -30.0, 211.0 ], [ -57.0, 178.0 ], [ -70.0, 156.0 ], [ -74.0, 129.0 ], [ -77.0, 103.0 ], [ -82.0, 86.0 ], [ -98.0, 68.0 ], [ -125.0, 46.0 ], [ -150.0, 28.0 ], [ -187.0, 5.0 ], [ -245.0, -18.0 ], [ -282.0, -29.0 ], [ -292.0, -27.0 ], [ -308.0, -17.0 ], [ -330.0, -1.0 ], [ -327.0, 10.0 ], [ -328.0, 55.0 ], [ -338.0, 97.0 ], [ -336.0, 124.0 ], [ -332.0, 146.0 ], [ -326.0, 167.0 ], [ -302.0, 190.0 ], [ -275.0, 211.0 ], [ -259.0, 220.0 ], [ -228.0, 218.0 ], [ -202.0, 191.0 ], [ -192.0, 166.0 ], [ -183.0, 157.0 ], [ -149.0, 150.0 ], [ -94.0, 159.0 ], [ -96.0, 196.0 ], [ -95.0, 227.0 ], [ -112.0, 235.0 ], [ -137.0, 249.0 ], [ -146.0, 281.0 ], [ -153.0, 314.0 ], [ -154.0, 336.0 ], [ -140.0, 322.0 ], [ -40.0, 216.0 ], [ -36.0, 223.0 ], [ -144.0, 342.0 ], [ -102.0, 365.0 ], [ -86.0, 342.0 ] ] ] } },
{ "type": "Feature", "properties": { "fid": 25, "name1": "0.c", "forest": "Vidaillat", "SPECIES": null, "PARFOR": "0", "TYPE": null, "SSTYPE": null, "SURF": 2.6559318652865569, "name2": "2 ha 65 a 59 ca" }, "geometry": { "type": "Polygon", "coordinates": [ [ [ -543.0, 1082.0 ], [ -580.0, 1061.0 ], [ -589.0, 1053.0 ], [ -599.0, 1025.0 ], [ -597.0, 1007.0 ], [ -607.0, 957.0 ], [ -626.0, 962.0 ], [ -653.0, 961.0 ], [ -681.0, 958.0 ], [ -709.0, 947.0 ], [ -725.0, 952.0 ], [ -741.0, 973.0 ], [ -763.0, 987.0 ], [ -787.0, 1001.0 ], [ -790.0, 1018.0 ], [ -779.0, 1039.0 ], [ -763.0, 1061.0 ], [ -734.0, 1080.0 ], [ -712.0, 1083.0 ], [ -676.0, 1085.0 ], [ -654.0, 1099.0 ], [ -632.0, 1124.0 ], [ -530.0, 1124.0 ], [ -538.0, 1111.0 ], [ -542.0, 1095.0 ], [ -543.0, 1082.0 ] ] ] } },
{ "type": "Feature", "properties": { "fid": 26, "name1": "0.d", "forest": "Vidaillat", "SPECIES": null, "PARFOR": "0", "TYPE": null, "SSTYPE": null, "SURF": 5.213964399030143, "name2": "5 ha 21 a 39 ca" }, "geometry": { "type": "Polygon", "coordinates": [ [ [ -927.0, 167.0 ], [ -935.0, 177.0 ], [ -940.0, 187.0 ], [ -940.0, 197.0 ], [ -934.0, 206.0 ], [ -924.0, 217.0 ], [ -873.0, 215.0 ], [ -834.0, 214.0 ], [ -818.0, 223.0 ], [ -807.0, 233.0 ], [ -794.0, 254.0 ], [ -786.0, 269.0 ], [ -766.0, 292.0 ], [ -746.0, 309.0 ], [ -737.0, 311.0 ], [ -640.0, 308.0 ], [ -621.0, 313.0 ], [ -610.0, 305.0 ], [ -597.0, 295.0 ], [ -581.0, 285.0 ], [ -568.0, 281.0 ], [ -560.0, 274.0 ], [ -555.0, 265.0 ], [ -550.0, 244.0 ], [ -541.0, 198.0 ], [ -539.0, 161.0 ], [ -531.0, 142.0 ], [ -520.0, 113.0 ], [ -502.0, 91.0 ], [ -483.0, 69.0 ], [ -467.0, 46.0 ], [ -464.0, 35.0 ], [ -483.0, -3.0 ], [ -492.0, -11.0 ], [ -534.0, -9.0 ], [ -544.0, -4.0 ], [ -551.0, 8.0 ], [ -556.0, 21.0 ], [ -576.0, 47.0 ], [ -595.0, 73.0 ], [ -612.0, 91.0 ], [ -624.0, 112.0 ], [ -628.0, 125.0 ], [ -626.0, 137.0 ], [ -621.0, 154.0 ], [ -611.0, 169.0 ], [ -603.0, 186.0 ], [ -597.0, 203.0 ], [ -599.0, 214.0 ], [ -603.0, 223.0 ], [ -612.0, 234.0 ], [ -620.0, 239.0 ], [ -634.0, 243.0 ], [ -646.0, 241.0 ], [ -662.0, 237.0 ], [ -675.0, 223.0 ], [ -688.0, 219.0 ], [ -707.0, 206.0 ], [ -727.0, 198.0 ], [ -742.0, 179.0 ], [ -760.0, 168.0 ], [ -790.0, 155.0 ], [ -818.0, 143.0 ], [ -832.0, 137.0 ], [ -848.0, 135.0 ], [ -860.0, 136.0 ], [ -887.0, 149.0 ], [ -906.0, 159.0 ], [ -909.0, 153.0 ], [ -927.0, 167.0 ] ] ] } },
{ "type": "Feature", "properties": { "fid": 27, "name1": "0.e", "forest": "Vidaillat", "SPECIES": null, "PARFOR": "0", "TYPE": null, "SSTYPE": null, "SURF": 0.12084917484134883, "name2": "0 ha 12 a 08 ca" }, "geometry": { "type": "Polygon", "coordinates": [ [ [ -373.0, 593.0 ], [ -378.0, 612.0 ], [ -379.0, 634.0 ], [ -378.0, 646.0 ], [ -382.0, 662.0 ], [ -379.0, 677.0 ], [ -372.0, 677.0 ], [ -369.0, 652.0 ], [ -363.0, 635.0 ], [ -350.0, 618.0 ], [ -373.0, 593.0 ] ] ] } },
{ "type": "Feature", "properties": { "fid": 28, "name1": "0.f", "forest": "Vidaillat", "SPECIES": null, "PARFOR": "0", "TYPE": null, "SSTYPE": null, "SURF": 0.24784830769075969, "name2": "0 ha 24 a 78 ca" }, "geometry": { "type": "Polygon", "coordinates": [ [ [ -376.0, 568.0 ], [ -349.0, 595.0 ], [ -341.0, 577.0 ], [ -338.0, 559.0 ], [ -326.0, 547.0 ], [ -314.0, 537.0 ], [ -308.0, 524.0 ], [ -370.0, 524.0 ], [ -365.0, 545.0 ], [ -376.0, 568.0 ] ] ] } },
{ "type": "Feature", "properties": { "fid": 29, "name1": "0.g", "forest": "Vidaillat", "SPECIES": null, "PARFOR": "0", "TYPE": null, "SSTYPE": null, "SURF": 2.6310820349612984, "name2": "2 ha 63 a 10 ca" }, "geometry": { "type": "Polygon", "coordinates": [ [ [ -580.0, 1061.0 ], [ -543.0, 1082.0 ], [ -538.0, 1073.0 ], [ -509.0, 1029.0 ], [ -499.0, 1008.0 ], [ -482.0, 977.0 ], [ -461.0, 951.0 ], [ -473.0, 948.0 ], [ -498.0, 945.0 ], [ -498.0, 922.0 ], [ -498.0, 907.0 ], [ -500.0, 894.0 ], [ -496.0, 882.0 ], [ -489.0, 868.0 ], [ -474.0, 848.0 ], [ -463.0, 830.0 ], [ -462.0, 820.0 ], [ -467.0, 814.0 ], [ -479.0, 805.0 ], [ -484.0, 800.0 ], [ -484.0, 795.0 ], [ -483.0, 791.0 ], [ -476.0, 785.0 ], [ -465.0, 780.0 ], [ -450.0, 768.0 ], [ -447.0, 761.0 ], [ -440.0, 747.0 ], [ -451.0, 742.0 ], [ -469.0, 742.0 ], [ -483.0, 742.0 ], [ -493.0, 746.0 ], [ -494.0, 752.0 ], [ -501.0, 766.0 ], [ -510.0, 775.0 ], [ -522.0, 776.0 ], [ -529.0, 782.0 ], [ -541.0, 796.0 ], [ -552.0, 808.0 ], [ -562.0, 830.0 ], [ -567.0, 852.0 ], [ -574.0, 877.0 ], [ -577.0, 897.0 ], [ -581.0, 911.0 ], [ -580.0, 920.0 ], [ -577.0, 934.0 ], [ -585.0, 945.0 ], [ -595.0, 954.0 ], [ -607.0, 957.0 ], [ -597.0, 1007.0 ], [ -578.0, 1002.0 ], [ -571.0, 1012.0 ], [ -563.0, 1031.0 ], [ -574.0, 1045.0 ], [ -580.0, 1061.0 ] ] ] } },
{ "type": "Feature", "properties": { "fid": 30, "name1": "15.a", "forest": "Vidaillat", "SPECIES": null, "PARFOR": "15", "TYPE": null, "SSTYPE": null, "SURF": 6.6775044059730977, "name2": "6 ha 67 a 75 ca" }, "geometry": { "type": "Polygon", "coordinates": [ [ [ -800.0, 688.0 ], [ -1120.0, 688.0 ], [ -1119.0, 897.0 ], [ -800.0, 897.0 ], [ -800.0, 688.0 ] ] ] } }
]
}
