{
  "type": "FeatureCollection",
  "crs": {
    "type": "name",
    "properties": {
      "name": "urn:ogc:def:crs:OGC:1.3:CRS84"
    }
  },
  "features": [
    {
      "type": "Feature",
      "properties": {
        "owner": {
          "UUID": "71882b98-712c-4bbf-86ea-858112fa6c6f",
          "username": "balrog329"
        },
        "visible": 1,
        "color": -16711808,
        "chunks": [],
        "created": 1785454084224,
        "minimapNameVisible": 1,
        "personal": 0,
        "announceInChat": 0,
        "mode": "Vertex",
        "fullscreenVisible": 1,
        "announceInTitle": 0,
        "modified": 1786740517204,
        "id": "d33b169f-7adf-44fe-bc5a-aa14fff3c999",
        "name2": "136ha 71a 33ca",
        "fullscreenNameVisible": 1,
        "dimension": "minecraft:overworld",
        "name1": "Vidaillat",
        "minimapVisible": 1,
        "fullscreenOwnerVisible": 0,
        "minimapOwnerVisible": 0
      },
      "geometry": {
        "type": "Polygon",
        "coordinates": [
          [
            [
              -1119.0,
              1109.0
            ],
            [
              -1119.0,
              897.0
            ],
            [
              -1121.0,
              356.0
            ],
            [
              -1121.0,
              348.0
            ],
            [
              -1120.0,
              284.0
            ],
            [
              -1108.0,
              280.0
            ],
            [
              -1073.0,
              272.0
            ],
            [
              -1042.0,
              269.0
            ],
            [
              -1016.0,
              266.0
            ],
            [
              -998.0,
              265.0
            ],
            [
              -972.0,
              254.0
            ],
            [
              -955.0,
              238.0
            ],
            [
              -948.0,
              234.0
            ],
            [
              -933.0,
              227.0
            ],
            [
              -927.0,
              233.0
            ],
            [
              -919.0,
              242.0
            ],
            [
              -904.0,
              258.0
            ],
            [
              -894.0,
              278.0
            ],
            [
              -888.0,
              290.0
            ],
            [
              -886.0,
              303.0
            ],
            [
              -894.0,
              323.0
            ],
            [
              -901.0,
              336.0
            ],
            [
              -917.0,
              348.0
            ],
            [
              -927.0,
              351.0
            ],
            [
              -941.0,
              354.0
            ],
            [
              -965.0,
              350.0
            ],
            [
              -987.0,
              344.0
            ],
            [
              -1014.0,
              338.0
            ],
            [
              -1038.0,
              332.0
            ],
            [
              -1063.0,
              328.0
            ],
            [
              -1084.0,
              328.0
            ],
            [
              -1103.0,
              333.0
            ],
            [
              -1113.0,
              343.0
            ],
            [
              -1121.0,
              349.0
            ],
            [
              -1121.0,
              356.0
            ],
            [
              -1114.0,
              351.0
            ],
            [
              -1095.0,
              339.0
            ],
            [
              -1074.0,
              337.0
            ],
            [
              -1054.0,
              341.0
            ],
            [
              -1016.0,
              349.0
            ],
            [
              -983.0,
              358.0
            ],
            [
              -947.0,
              364.0
            ],
            [
              -927.0,
              364.0
            ],
            [
              -901.0,
              352.0
            ],
            [
              -886.0,
              336.0
            ],
            [
              -874.0,
              307.0
            ],
            [
              -877.0,
              284.0
            ],
            [
              -889.0,
              261.0
            ],
            [
              -916.0,
              226.0
            ],
            [
              -832.0,
              225.0
            ],
            [
              -815.0,
              240.0
            ],
            [
              -814.0,
              255.0
            ],
            [
              -805.0,
              265.0
            ],
            [
              -789.0,
              285.0
            ],
            [
              -765.0,
              308.0
            ],
            [
              -750.0,
              317.0
            ],
            [
              -736.0,
              322.0
            ],
            [
              -641.0,
              323.0
            ],
            [
              -631.0,
              331.0
            ],
            [
              -526.0,
              438.0
            ],
            [
              -477.0,
              486.0
            ],
            [
              -436.0,
              528.0
            ],
            [
              -419.0,
              546.0
            ],
            [
              -373.0,
              593.0
            ],
            [
              -350.0,
              618.0
            ],
            [
              -309.0,
              655.0
            ],
            [
              -276.0,
              685.0
            ],
            [
              -269.0,
              697.0
            ],
            [
              -266.0,
              722.0
            ],
            [
              -266.0,
              758.0
            ],
            [
              -263.0,
              789.0
            ],
            [
              -260.0,
              842.0
            ],
            [
              -258.0,
              886.0
            ],
            [
              -270.0,
              890.0
            ],
            [
              -282.0,
              893.0
            ],
            [
              -468.0,
              893.0
            ],
            [
              -468.0,
              894.0
            ],
            [
              -288.0,
              894.0
            ],
            [
              -298.0,
              898.0
            ],
            [
              -319.0,
              910.0
            ],
            [
              -338.0,
              925.0
            ],
            [
              -352.0,
              943.0
            ],
            [
              -366.0,
              963.0
            ],
            [
              -377.0,
              981.0
            ],
            [
              -382.0,
              1000.0
            ],
            [
              -390.0,
              1023.0
            ],
            [
              -393.0,
              1039.0
            ],
            [
              -405.0,
              1064.0
            ],
            [
              -415.0,
              1077.0
            ],
            [
              -426.0,
              1094.0
            ],
            [
              -428.0,
              1107.0
            ],
            [
              -430.0,
              1118.0
            ],
            [
              -431.0,
              1124.0
            ],
            [
              -424.0,
              1124.0
            ],
            [
              -418.0,
              1109.0
            ],
            [
              -415.0,
              1102.0
            ],
            [
              -409.0,
              1094.0
            ],
            [
              -402.0,
              1086.0
            ],
            [
              -391.0,
              1065.0
            ],
            [
              -384.0,
              1045.0
            ],
            [
              -382.0,
              1036.0
            ],
            [
              -376.0,
              1017.0
            ],
            [
              -374.0,
              1011.0
            ],
            [
              -365.0,
              983.0
            ],
            [
              -353.0,
              963.0
            ],
            [
              -335.0,
              938.0
            ],
            [
              -309.0,
              915.0
            ],
            [
              -289.0,
              905.0
            ],
            [
              -257.0,
              893.0
            ],
            [
              -257.0,
              939.0
            ],
            [
              -256.0,
              1122.0
            ],
            [
              -256.0,
              1125.0
            ],
            [
              -242.0,
              1118.0
            ],
            [
              -242.0,
              1061.0
            ],
            [
              -244.0,
              891.0
            ],
            [
              -246.0,
              878.0
            ],
            [
              -249.0,
              859.0
            ],
            [
              -251.0,
              811.0
            ],
            [
              -254.0,
              776.0
            ],
            [
              -258.0,
              691.0
            ],
            [
              -265.0,
              679.0
            ],
            [
              -309.0,
              635.0
            ],
            [
              -481.0,
              464.0
            ],
            [
              -640.0,
              308.0
            ],
            [
              -737.0,
              311.0
            ],
            [
              -746.0,
              309.0
            ],
            [
              -766.0,
              292.0
            ],
            [
              -786.0,
              269.0
            ],
            [
              -794.0,
              254.0
            ],
            [
              -807.0,
              233.0
            ],
            [
              -818.0,
              223.0
            ],
            [
              -834.0,
              214.0
            ],
            [
              -873.0,
              215.0
            ],
            [
              -924.0,
              217.0
            ],
            [
              -934.0,
              206.0
            ],
            [
              -940.0,
              197.0
            ],
            [
              -940.0,
              187.0
            ],
            [
              -935.0,
              177.0
            ],
            [
              -927.0,
              167.0
            ],
            [
              -937.0,
              165.0
            ],
            [
              -948.0,
              165.0
            ],
            [
              -962.0,
              160.0
            ],
            [
              -981.0,
              146.0
            ],
            [
              -995.0,
              130.0
            ],
            [
              -1003.0,
              104.0
            ],
            [
              -1025.0,
              72.0
            ],
            [
              -1023.0,
              -51.0
            ],
            [
              -1007.0,
              -64.0
            ],
            [
              -982.0,
              -68.0
            ],
            [
              -942.0,
              -79.0
            ],
            [
              -914.0,
              -86.0
            ],
            [
              -883.0,
              -88.0
            ],
            [
              -867.0,
              -88.0
            ],
            [
              -852.0,
              -96.0
            ],
            [
              -846.0,
              -96.0
            ],
            [
              -815.0,
              -117.0
            ],
            [
              -800.0,
              -135.0
            ],
            [
              -807.0,
              -160.0
            ],
            [
              -751.0,
              -160.0
            ],
            [
              -736.0,
              -139.0
            ],
            [
              -707.0,
              -116.0
            ],
            [
              -688.0,
              -100.0
            ],
            [
              -681.0,
              -85.0
            ],
            [
              -655.0,
              -81.0
            ],
            [
              -631.0,
              -96.0
            ],
            [
              -633.0,
              -120.0
            ],
            [
              -628.0,
              -144.0
            ],
            [
              -609.0,
              -161.0
            ],
            [
              -352.0,
              -159.0
            ],
            [
              -326.0,
              -126.0
            ],
            [
              -304.0,
              -109.0
            ],
            [
              -303.0,
              -100.0
            ],
            [
              -314.0,
              -94.0
            ],
            [
              -342.0,
              -83.0
            ],
            [
              -349.0,
              -77.0
            ],
            [
              -346.0,
              -71.0
            ],
            [
              -337.0,
              -54.0
            ],
            [
              -335.0,
              -33.0
            ],
            [
              -328.0,
              -15.0
            ],
            [
              -344.0,
              -4.0
            ],
            [
              -361.0,
              6.0
            ],
            [
              -375.0,
              9.0
            ],
            [
              -394.0,
              9.0
            ],
            [
              -414.0,
              4.0
            ],
            [
              -436.0,
              -5.0
            ],
            [
              -480.0,
              -29.0
            ],
            [
              -510.0,
              -42.0
            ],
            [
              -528.0,
              -43.0
            ],
            [
              -541.0,
              -35.0
            ],
            [
              -558.0,
              -18.0
            ],
            [
              -567.0,
              5.0
            ],
            [
              -589.0,
              31.0
            ],
            [
              -611.0,
              47.0
            ],
            [
              -635.0,
              68.0
            ],
            [
              -651.0,
              101.0
            ],
            [
              -658.0,
              128.0
            ],
            [
              -663.0,
              136.0
            ],
            [
              -669.0,
              142.0
            ],
            [
              -688.0,
              146.0
            ],
            [
              -702.0,
              143.0
            ],
            [
              -715.0,
              132.0
            ],
            [
              -732.0,
              123.0
            ],
            [
              -748.0,
              114.0
            ],
            [
              -773.0,
              109.0
            ],
            [
              -808.0,
              112.0
            ],
            [
              -839.0,
              114.0
            ],
            [
              -866.0,
              119.0
            ],
            [
              -892.0,
              132.0
            ],
            [
              -918.0,
              149.0
            ],
            [
              -937.0,
              165.0
            ],
            [
              -927.0,
              167.0
            ],
            [
              -909.0,
              153.0
            ],
            [
              -893.0,
              145.0
            ],
            [
              -871.0,
              132.0
            ],
            [
              -853.0,
              124.0
            ],
            [
              -825.0,
              123.0
            ],
            [
              -775.0,
              121.0
            ],
            [
              -758.0,
              123.0
            ],
            [
              -735.0,
              136.0
            ],
            [
              -706.0,
              152.0
            ],
            [
              -695.0,
              157.0
            ],
            [
              -688.0,
              158.0
            ],
            [
              -681.0,
              158.0
            ],
            [
              -664.0,
              152.0
            ],
            [
              -654.0,
              141.0
            ],
            [
              -642.0,
              118.0
            ],
            [
              -633.0,
              95.0
            ],
            [
              -624.0,
              77.0
            ],
            [
              -612.0,
              61.0
            ],
            [
              -594.0,
              48.0
            ],
            [
              -574.0,
              29.0
            ],
            [
              -551.0,
              -1.0
            ],
            [
              -532.0,
              -25.0
            ],
            [
              -523.0,
              -29.0
            ],
            [
              -507.0,
              -29.0
            ],
            [
              -492.0,
              -24.0
            ],
            [
              -471.0,
              -13.0
            ],
            [
              -440.0,
              4.0
            ],
            [
              -409.0,
              19.0
            ],
            [
              -373.0,
              20.0
            ],
            [
              -359.0,
              17.0
            ],
            [
              -330.0,
              -1.0
            ],
            [
              -308.0,
              -17.0
            ],
            [
              -292.0,
              -27.0
            ],
            [
              -282.0,
              -29.0
            ],
            [
              -245.0,
              -18.0
            ],
            [
              -187.0,
              5.0
            ],
            [
              -150.0,
              28.0
            ],
            [
              -125.0,
              46.0
            ],
            [
              -98.0,
              68.0
            ],
            [
              -82.0,
              86.0
            ],
            [
              -77.0,
              103.0
            ],
            [
              -74.0,
              129.0
            ],
            [
              -70.0,
              156.0
            ],
            [
              -57.0,
              178.0
            ],
            [
              -30.0,
              211.0
            ],
            [
              -20.0,
              231.0
            ],
            [
              -20.0,
              259.0
            ],
            [
              -20.0,
              283.0
            ],
            [
              -86.0,
              310.0
            ],
            [
              -83.0,
              316.0
            ],
            [
              -86.0,
              342.0
            ],
            [
              -102.0,
              365.0
            ],
            [
              -79.0,
              387.0
            ],
            [
              -17.0,
              333.0
            ],
            [
              -11.0,
              345.0
            ],
            [
              -68.0,
              391.0
            ],
            [
              -75.0,
              401.0
            ],
            [
              -67.0,
              411.0
            ],
            [
              -66.0,
              446.0
            ],
            [
              -52.0,
              480.0
            ],
            [
              -51.0,
              505.0
            ],
            [
              -57.0,
              522.0
            ],
            [
              -68.0,
              539.0
            ],
            [
              -79.0,
              546.0
            ],
            [
              -64.0,
              605.0
            ],
            [
              -56.0,
              627.0
            ],
            [
              -40.0,
              630.0
            ],
            [
              -89.0,
              682.0
            ],
            [
              -125.0,
              734.0
            ],
            [
              -144.0,
              767.0
            ],
            [
              -155.0,
              792.0
            ],
            [
              -166.0,
              823.0
            ],
            [
              -179.0,
              842.0
            ],
            [
              -201.0,
              859.0
            ],
            [
              -232.0,
              872.0
            ],
            [
              -246.0,
              877.0
            ],
            [
              -244.0,
              891.0
            ],
            [
              -220.0,
              881.0
            ],
            [
              -206.0,
              876.0
            ],
            [
              -184.0,
              863.0
            ],
            [
              -161.0,
              838.0
            ],
            [
              -149.0,
              821.0
            ],
            [
              -139.0,
              793.0
            ],
            [
              -130.0,
              773.0
            ],
            [
              -118.0,
              745.0
            ],
            [
              -99.0,
              720.0
            ],
            [
              -74.0,
              683.0
            ],
            [
              -55.0,
              657.0
            ],
            [
              -22.0,
              626.0
            ],
            [
              -11.0,
              615.0
            ],
            [
              -1.0,
              595.0
            ],
            [
              8.0,
              570.0
            ],
            [
              10.0,
              561.0
            ],
            [
              31.0,
              561.0
            ],
            [
              28.0,
              489.0
            ],
            [
              27.0,
              456.0
            ],
            [
              29.0,
              436.0
            ],
            [
              30.0,
              411.0
            ],
            [
              34.0,
              390.0
            ],
            [
              39.0,
              377.0
            ],
            [
              49.0,
              362.0
            ],
            [
              59.0,
              329.0
            ],
            [
              71.0,
              310.0
            ],
            [
              90.0,
              287.0
            ],
            [
              100.0,
              281.0
            ],
            [
              114.0,
              274.0
            ],
            [
              135.0,
              278.0
            ],
            [
              157.0,
              286.0
            ],
            [
              169.0,
              286.0
            ],
            [
              176.0,
              292.0
            ],
            [
              180.0,
              309.0
            ],
            [
              188.0,
              327.0
            ],
            [
              213.0,
              356.0
            ],
            [
              237.0,
              391.0
            ],
            [
              229.0,
              430.0
            ],
            [
              236.0,
              458.0
            ],
            [
              247.0,
              487.0
            ],
            [
              262.0,
              511.0
            ],
            [
              269.0,
              525.0
            ],
            [
              272.0,
              537.0
            ],
            [
              274.0,
              560.0
            ],
            [
              261.0,
              602.0
            ],
            [
              260.0,
              620.0
            ],
            [
              267.0,
              622.0
            ],
            [
              283.0,
              611.0
            ],
            [
              301.0,
              586.0
            ],
            [
              311.0,
              571.0
            ],
            [
              323.0,
              562.0
            ],
            [
              356.0,
              545.0
            ],
            [
              375.0,
              538.0
            ],
            [
              360.0,
              578.0
            ],
            [
              331.0,
              642.0
            ],
            [
              305.0,
              691.0
            ],
            [
              269.0,
              744.0
            ],
            [
              193.0,
              838.0
            ],
            [
              154.0,
              875.0
            ],
            [
              135.0,
              897.0
            ],
            [
              78.0,
              954.0
            ],
            [
              65.0,
              964.0
            ],
            [
              39.0,
              983.0
            ],
            [
              -4.0,
              1010.0
            ],
            [
              -37.0,
              1027.0
            ],
            [
              -82.0,
              1048.0
            ],
            [
              -130.0,
              1068.0
            ],
            [
              -190.0,
              1096.0
            ],
            [
              -242.0,
              1118.0
            ],
            [
              -256.0,
              1125.0
            ],
            [
              -344.0,
              1124.0
            ],
            [
              -433.0,
              1124.0
            ],
            [
              -632.0,
              1124.0
            ],
            [
              -1119.0,
              1123.0
            ],
            [
              -1119.0,
              1109.0
            ]
          ]
        ]
      }
    },
    {
      "type": "Feature",
      "properties": {
        "owner": {
          "UUID": "71882b98-712c-4bbf-86ea-858112fa6c6f",
          "username": "balrog329"
        },
        "visible": 1,
        "color": -32768,
        "chunks": [],
        "created": 1785536062198,
        "minimapNameVisible": 1,
        "personal": 0,
        "announceInChat": 0,
        "mode": "Vertex",
        "fullscreenVisible": 1,
        "announceInTitle": 0,
        "modified": 1785536263844,
        "id": "bf6d0213-3468-43ee-9ad2-d922a01ca135",
        "name2": "10ha 67a 88ca",
        "fullscreenNameVisible": 1,
        "dimension": "minecraft:overworld",
        "name1": "2",
        "minimapVisible": 1,
        "fullscreenOwnerVisible": 0,
        "minimapOwnerVisible": 0
      },
      "geometry": {
        "type": "Polygon",
        "coordinates": [
          [
            [
              349.0,
              602.0
            ],
            [
              331.0,
              642.0
            ],
            [
              305.0,
              691.0
            ],
            [
              269.0,
              744.0
            ],
            [
              193.0,
              838.0
            ],
            [
              154.0,
              875.0
            ],
            [
              135.0,
              897.0
            ],
            [
              78.0,
              954.0
            ],
            [
              56.0,
              944.0
            ],
            [
              37.0,
              929.0
            ],
            [
              24.0,
              915.0
            ],
            [
              7.0,
              896.0
            ],
            [
              -11.0,
              876.0
            ],
            [
              -21.0,
              868.0
            ],
            [
              -37.0,
              869.0
            ],
            [
              -63.0,
              872.0
            ],
            [
              -69.0,
              876.0
            ],
            [
              -78.0,
              891.0
            ],
            [
              -244.0,
              891.0
            ],
            [
              -220.0,
              881.0
            ],
            [
              -206.0,
              876.0
            ],
            [
              -184.0,
              863.0
            ],
            [
              -161.0,
              838.0
            ],
            [
              -149.0,
              821.0
            ],
            [
              -139.0,
              793.0
            ],
            [
              -118.0,
              745.0
            ],
            [
              -99.0,
              720.0
            ],
            [
              -74.0,
              683.0
            ],
            [
              -55.0,
              657.0
            ],
            [
              -22.0,
              626.0
            ],
            [
              -20.0,
              624.0
            ],
            [
              267.0,
              624.0
            ],
            [
              267.0,
              622.0
            ],
            [
              283.0,
              611.0
            ],
            [
              311.0,
              571.0
            ],
            [
              323.0,
              562.0
            ],
            [
              356.0,
              545.0
            ],
            [
              375.0,
              538.0
            ],
            [
              360.0,
              578.0
            ],
            [
              349.0,
              602.0
            ]
          ]
        ]
      }
    },
    {
      "type": "Feature",
      "properties": {
        "owner": {
          "UUID": "71882b98-712c-4bbf-86ea-858112fa6c6f",
          "username": "balrog329"
        },
        "visible": 1,
        "color": -32768,
        "chunks": [],
        "created": 1785537014459,
        "minimapNameVisible": 1,
        "personal": 0,
        "announceInChat": 0,
        "mode": "Vertex",
        "fullscreenVisible": 1,
        "announceInTitle": 0,
        "modified": 1785537240040,
        "id": "c0019dde-ce99-480d-902b-010a3622da6b",
        "name2": "5ha 46a 36ca",
        "fullscreenNameVisible": 1,
        "dimension": "minecraft:overworld",
        "name1": "4",
        "minimapVisible": 1,
        "fullscreenOwnerVisible": 0,
        "minimapOwnerVisible": 0
      },
      "geometry": {
        "type": "Polygon",
        "coordinates": [
          [
            [
              -288.0,
              894.0
            ],
            [
              -298.0,
              898.0
            ],
            [
              -319.0,
              910.0
            ],
            [
              -338.0,
              925.0
            ],
            [
              -352.0,
              943.0
            ],
            [
              -366.0,
              963.0
            ],
            [
              -377.0,
              981.0
            ],
            [
              -382.0,
              1000.0
            ],
            [
              -390.0,
              1023.0
            ],
            [
              -393.0,
              1039.0
            ],
            [
              -405.0,
              1064.0
            ],
            [
              -415.0,
              1077.0
            ],
            [
              -426.0,
              1094.0
            ],
            [
              -431.0,
              1124.0
            ],
            [
              -424.0,
              1124.0
            ],
            [
              -415.0,
              1102.0
            ],
            [
              -402.0,
              1086.0
            ],
            [
              -391.0,
              1065.0
            ],
            [
              -384.0,
              1045.0
            ],
            [
              -382.0,
              1036.0
            ],
            [
              -365.0,
              983.0
            ],
            [
              -353.0,
              963.0
            ],
            [
              -335.0,
              938.0
            ],
            [
              -309.0,
              915.0
            ],
            [
              -289.0,
              905.0
            ],
            [
              -257.0,
              893.0
            ],
            [
              -256.0,
              1125.0
            ],
            [
              -339.0,
              1124.0
            ],
            [
              -424.0,
              1124.0
            ],
            [
              -431.0,
              1124.0
            ],
            [
              -530.0,
              1124.0
            ],
            [
              -538.0,
              1111.0
            ],
            [
              -542.0,
              1095.0
            ],
            [
              -543.0,
              1082.0
            ],
            [
              -538.0,
              1073.0
            ],
            [
              -509.0,
              1029.0
            ],
            [
              -499.0,
              1008.0
            ],
            [
              -482.0,
              977.0
            ],
            [
              -461.0,
              951.0
            ],
            [
              -473.0,
              948.0
            ],
            [
              -498.0,
              945.0
            ],
            [
              -498.0,
              922.0
            ],
            [
              -498.0,
              907.0
            ],
            [
              -500.0,
              894.0
            ],
            [
              -288.0,
              894.0
            ]
          ]
        ]
      }
    },
    {
      "type": "Feature",
      "properties": {
        "owner": {
          "UUID": "71882b98-712c-4bbf-86ea-858112fa6c6f",
          "username": "balrog329"
        },
        "visible": 1,
        "color": -32768,
        "chunks": [],
        "created": 1785573733328,
        "minimapNameVisible": 1,
        "personal": 0,
        "announceInChat": 0,
        "mode": "Vertex",
        "fullscreenVisible": 1,
        "announceInTitle": 0,
        "modified": 1785573892663,
        "id": "679299fe-89c9-467f-b5fb-4dd119d12ca2",
        "name2": "4ha 88a 49ca",
        "fullscreenNameVisible": 1,
        "dimension": "minecraft:overworld",
        "name1": "7",
        "minimapVisible": 1,
        "fullscreenOwnerVisible": 0,
        "minimapOwnerVisible": 0
      },
      "geometry": {
        "type": "Polygon",
        "coordinates": [
          [
            [
              -228.0,
              218.0
            ],
            [
              -235.0,
              241.0
            ],
            [
              -258.0,
              253.0
            ],
            [
              -300.0,
              257.0
            ],
            [
              -315.0,
              250.0
            ],
            [
              -336.0,
              243.0
            ],
            [
              -416.0,
              237.0
            ],
            [
              -437.0,
              238.0
            ],
            [
              -455.0,
              244.0
            ],
            [
              -477.0,
              253.0
            ],
            [
              -504.0,
              256.0
            ],
            [
              -555.0,
              265.0
            ],
            [
              -550.0,
              244.0
            ],
            [
              -541.0,
              198.0
            ],
            [
              -539.0,
              161.0
            ],
            [
              -531.0,
              142.0
            ],
            [
              -520.0,
              113.0
            ],
            [
              -502.0,
              91.0
            ],
            [
              -483.0,
              69.0
            ],
            [
              -467.0,
              46.0
            ],
            [
              -464.0,
              35.0
            ],
            [
              -483.0,
              -3.0
            ],
            [
              -492.0,
              -11.0
            ],
            [
              -492.0,
              -24.0
            ],
            [
              -440.0,
              4.0
            ],
            [
              -409.0,
              19.0
            ],
            [
              -373.0,
              20.0
            ],
            [
              -359.0,
              17.0
            ],
            [
              -330.0,
              -1.0
            ],
            [
              -327.0,
              10.0
            ],
            [
              -328.0,
              55.0
            ],
            [
              -338.0,
              97.0
            ],
            [
              -336.0,
              124.0
            ],
            [
              -332.0,
              146.0
            ],
            [
              -326.0,
              167.0
            ],
            [
              -302.0,
              190.0
            ],
            [
              -275.0,
              211.0
            ],
            [
              -259.0,
              220.0
            ],
            [
              -228.0,
              218.0
            ]
          ]
        ]
      }
    },
    {
      "type": "Feature",
      "properties": {
        "owner": {
          "UUID": "71882b98-712c-4bbf-86ea-858112fa6c6f",
          "username": "balrog329"
        },
        "visible": 1,
        "color": -8323328,
        "chunks": [],
        "created": 1785842665107,
        "minimapNameVisible": 1,
        "personal": 0,
        "announceInChat": 0,
        "mode": "Vertex",
        "fullscreenVisible": 1,
        "announceInTitle": 0,
        "modified": 1785842785569,
        "id": "68c4d4cb-7775-4275-bc5e-f8b9804a6486",
        "name2": "1,4666",
        "fullscreenNameVisible": 1,
        "dimension": "minecraft:overworld",
        "name1": "Travaux P13",
        "minimapVisible": 1,
        "fullscreenOwnerVisible": 0,
        "minimapOwnerVisible": 0
      },
      "geometry": {
        "type": "Polygon",
        "coordinates": [
          [
            [
              -673.0,
              529.0
            ],
            [
              -674.0,
              625.0
            ],
            [
              -619.0,
              660.0
            ],
            [
              -599.0,
              688.0
            ],
            [
              -702.0,
              688.0
            ],
            [
              -725.0,
              661.0
            ],
            [
              -756.0,
              621.0
            ],
            [
              -777.0,
              593.0
            ],
            [
              -776.0,
              575.0
            ],
            [
              -753.0,
              575.0
            ],
            [
              -753.0,
              528.0
            ],
            [
              -673.0,
              529.0
            ]
          ]
        ]
      }
    },
    {
      "type": "Feature",
      "properties": {
        "owner": {
          "UUID": "71882b98-712c-4bbf-86ea-858112fa6c6f",
          "username": "balrog329"
        },
        "visible": 1,
        "color": -32768,
        "chunks": [],
        "created": 1785535810909,
        "minimapNameVisible": 1,
        "personal": 0,
        "announceInChat": 0,
        "mode": "Vertex",
        "fullscreenVisible": 1,
        "announceInTitle": 0,
        "modified": 1785535957507,
        "id": "d77c2675-9e06-40b1-bfea-071342a1bfa0",
        "name2": "6ha 94a 20ca",
        "fullscreenNameVisible": 1,
        "dimension": "minecraft:overworld",
        "name1": "1",
        "minimapVisible": 1,
        "fullscreenOwnerVisible": 0,
        "minimapOwnerVisible": 0
      },
      "geometry": {
        "type": "Polygon",
        "coordinates": [
          [
            [
              267.0,
              622.0
            ],
            [
              267.0,
              624.0
            ],
            [
              -20.0,
              624.0
            ],
            [
              -11.0,
              615.0
            ],
            [
              -1.0,
              595.0
            ],
            [
              8.0,
              570.0
            ],
            [
              10.0,
              561.0
            ],
            [
              31.0,
              561.0
            ],
            [
              27.0,
              456.0
            ],
            [
              29.0,
              435.0
            ],
            [
              30.0,
              411.0
            ],
            [
              34.0,
              390.0
            ],
            [
              39.0,
              377.0
            ],
            [
              49.0,
              362.0
            ],
            [
              59.0,
              329.0
            ],
            [
              71.0,
              310.0
            ],
            [
              90.0,
              287.0
            ],
            [
              100.0,
              281.0
            ],
            [
              114.0,
              274.0
            ],
            [
              135.0,
              278.0
            ],
            [
              157.0,
              286.0
            ],
            [
              169.0,
              286.0
            ],
            [
              176.0,
              292.0
            ],
            [
              180.0,
              309.0
            ],
            [
              188.0,
              327.0
            ],
            [
              213.0,
              356.0
            ],
            [
              237.0,
              391.0
            ],
            [
              229.0,
              430.0
            ],
            [
              236.0,
              458.0
            ],
            [
              247.0,
              487.0
            ],
            [
              262.0,
              511.0
            ],
            [
              269.0,
              525.0
            ],
            [
              272.0,
              537.0
            ],
            [
              274.0,
              560.0
            ],
            [
              261.0,
              602.0
            ],
            [
              260.0,
              620.0
            ],
            [
              267.0,
              622.0
            ]
          ]
        ]
      }
    },
    {
      "type": "Feature",
      "properties": {
        "owner": {
          "UUID": "71882b98-712c-4bbf-86ea-858112fa6c6f",
          "username": "balrog329"
        },
        "visible": 1,
        "color": -32768,
        "chunks": [],
        "created": 1785534318051,
        "minimapNameVisible": 1,
        "personal": 0,
        "announceInChat": 0,
        "mode": "Vertex",
        "fullscreenVisible": 1,
        "announceInTitle": 0,
        "modified": 1785534832661,
        "id": "2964f2fa-e0d4-4674-afc2-8c3f919d9799",
        "name2": "9ha 66a 00ca",
        "fullscreenNameVisible": 1,
        "dimension": "minecraft:overworld",
        "name1": "16",
        "minimapVisible": 1,
        "fullscreenOwnerVisible": 0,
        "minimapOwnerVisible": 0
      },
      "geometry": {
        "type": "Polygon",
        "coordinates": [
          [
            [
              -742.0,
              897.0
            ],
            [
              -577.0,
              897.0
            ],
            [
              -581.0,
              911.0
            ],
            [
              -580.0,
              920.0
            ],
            [
              -577.0,
              934.0
            ],
            [
              -585.0,
              945.0
            ],
            [
              -595.0,
              954.0
            ],
            [
              -607.0,
              957.0
            ],
            [
              -578.0,
              1002.0
            ],
            [
              -571.0,
              1012.0
            ],
            [
              -563.0,
              1031.0
            ],
            [
              -574.0,
              1045.0
            ],
            [
              -580.0,
              1061.0
            ],
            [
              -589.0,
              1053.0
            ],
            [
              -599.0,
              1025.0
            ],
            [
              -597.0,
              1007.0
            ],
            [
              -578.0,
              1002.0
            ],
            [
              -607.0,
              957.0
            ],
            [
              -626.0,
              962.0
            ],
            [
              -653.0,
              961.0
            ],
            [
              -681.0,
              958.0
            ],
            [
              -709.0,
              947.0
            ],
            [
              -725.0,
              952.0
            ],
            [
              -741.0,
              973.0
            ],
            [
              -763.0,
              987.0
            ],
            [
              -787.0,
              1001.0
            ],
            [
              -790.0,
              1018.0
            ],
            [
              -779.0,
              1039.0
            ],
            [
              -763.0,
              1061.0
            ],
            [
              -734.0,
              1080.0
            ],
            [
              -712.0,
              1083.0
            ],
            [
              -676.0,
              1085.0
            ],
            [
              -654.0,
              1099.0
            ],
            [
              -632.0,
              1124.0
            ],
            [
              -1119.0,
              1123.0
            ],
            [
              -1119.0,
              897.0
            ],
            [
              -742.0,
              897.0
            ]
          ]
        ]
      }
    },
    {
      "type": "Feature",
      "properties": {
        "owner": {
          "UUID": "71882b98-712c-4bbf-86ea-858112fa6c6f",
          "username": "balrog329"
        },
        "visible": 1,
        "color": -32768,
        "chunks": [],
        "created": 1785576321884,
        "minimapNameVisible": 1,
        "personal": 0,
        "announceInChat": 0,
        "mode": "Vertex",
        "fullscreenVisible": 1,
        "announceInTitle": 0,
        "modified": 1785576547879,
        "id": "672a7f6d-050c-4bf8-9949-bc7b1dc88da0",
        "name2": "8ha 45a 51ca",
        "fullscreenNameVisible": 1,
        "dimension": "minecraft:overworld",
        "name1": "9",
        "minimapVisible": 1,
        "fullscreenOwnerVisible": 0,
        "minimapOwnerVisible": 0
      },
      "geometry": {
        "type": "Polygon",
        "coordinates": [
          [
            [
              -688.0,
              -100.0
            ],
            [
              -688.0,
              30.0
            ],
            [
              -688.0,
              146.0
            ],
            [
              -688.0,
              158.0
            ],
            [
              -688.0,
              219.0
            ],
            [
              -707.0,
              206.0
            ],
            [
              -727.0,
              198.0
            ],
            [
              -742.0,
              179.0
            ],
            [
              -760.0,
              168.0
            ],
            [
              -790.0,
              155.0
            ],
            [
              -818.0,
              143.0
            ],
            [
              -832.0,
              137.0
            ],
            [
              -848.0,
              135.0
            ],
            [
              -860.0,
              136.0
            ],
            [
              -887.0,
              149.0
            ],
            [
              -906.0,
              159.0
            ],
            [
              -909.0,
              153.0
            ],
            [
              -893.0,
              145.0
            ],
            [
              -871.0,
              132.0
            ],
            [
              -853.0,
              124.0
            ],
            [
              -775.0,
              121.0
            ],
            [
              -758.0,
              123.0
            ],
            [
              -706.0,
              152.0
            ],
            [
              -695.0,
              157.0
            ],
            [
              -688.0,
              158.0
            ],
            [
              -688.0,
              146.0
            ],
            [
              -702.0,
              143.0
            ],
            [
              -715.0,
              132.0
            ],
            [
              -748.0,
              114.0
            ],
            [
              -773.0,
              109.0
            ],
            [
              -839.0,
              114.0
            ],
            [
              -866.0,
              119.0
            ],
            [
              -892.0,
              132.0
            ],
            [
              -918.0,
              149.0
            ],
            [
              -937.0,
              165.0
            ],
            [
              -948.0,
              165.0
            ],
            [
              -962.0,
              160.0
            ],
            [
              -981.0,
              146.0
            ],
            [
              -995.0,
              130.0
            ],
            [
              -1003.0,
              104.0
            ],
            [
              -1025.0,
              72.0
            ],
            [
              -1023.0,
              -51.0
            ],
            [
              -1007.0,
              -64.0
            ],
            [
              -982.0,
              -68.0
            ],
            [
              -914.0,
              -86.0
            ],
            [
              -883.0,
              -88.0
            ],
            [
              -867.0,
              -88.0
            ],
            [
              -852.0,
              -96.0
            ],
            [
              -846.0,
              -96.0
            ],
            [
              -815.0,
              -117.0
            ],
            [
              -800.0,
              -135.0
            ],
            [
              -807.0,
              -160.0
            ],
            [
              -751.0,
              -160.0
            ],
            [
              -736.0,
              -139.0
            ],
            [
              -707.0,
              -116.0
            ],
            [
              -688.0,
              -100.0
            ]
          ]
        ]
      }
    },
    {
      "type": "Feature",
      "properties": {
        "owner": {
          "UUID": "71882b98-712c-4bbf-86ea-858112fa6c6f",
          "username": "balrog329"
        },
        "visible": 1,
        "color": -32768,
        "chunks": [],
        "created": 1785534654914,
        "minimapNameVisible": 1,
        "personal": 0,
        "announceInChat": 0,
        "mode": "Vertex",
        "fullscreenVisible": 1,
        "announceInTitle": 0,
        "modified": 1785534804272,
        "id": "6ebeba45-5aa0-47a4-bf10-4f1bd6bd1222",
        "name2": "6ha 02a 33ca",
        "fullscreenNameVisible": 1,
        "dimension": "minecraft:overworld",
        "name1": "14",
        "minimapVisible": 1,
        "fullscreenOwnerVisible": 0,
        "minimapOwnerVisible": 0
      },
      "geometry": {
        "type": "Polygon",
        "coordinates": [
          [
            [
              -391.0,
              688.0
            ],
            [
              -402.0,
              704.0
            ],
            [
              -412.0,
              710.0
            ],
            [
              -418.0,
              710.0
            ],
            [
              -422.0,
              713.0
            ],
            [
              -424.0,
              719.0
            ],
            [
              -425.0,
              728.0
            ],
            [
              -431.0,
              738.0
            ],
            [
              -440.0,
              747.0
            ],
            [
              -451.0,
              742.0
            ],
            [
              -469.0,
              742.0
            ],
            [
              -483.0,
              742.0
            ],
            [
              -493.0,
              746.0
            ],
            [
              -494.0,
              752.0
            ],
            [
              -501.0,
              766.0
            ],
            [
              -510.0,
              775.0
            ],
            [
              -522.0,
              776.0
            ],
            [
              -529.0,
              782.0
            ],
            [
              -541.0,
              796.0
            ],
            [
              -552.0,
              808.0
            ],
            [
              -562.0,
              830.0
            ],
            [
              -567.0,
              852.0
            ],
            [
              -574.0,
              877.0
            ],
            [
              -577.0,
              897.0
            ],
            [
              -800.0,
              897.0
            ],
            [
              -800.0,
              688.0
            ],
            [
              -391.0,
              688.0
            ]
          ]
        ]
      }
    },
    {
      "type": "Feature",
      "properties": {
        "owner": {
          "UUID": "71882b98-712c-4bbf-86ea-858112fa6c6f",
          "username": "balrog329"
        },
        "visible": 1,
        "color": -32768,
        "chunks": [],
        "created": 1785535666085,
        "minimapNameVisible": 1,
        "personal": 0,
        "announceInChat": 0,
        "mode": "Vertex",
        "fullscreenVisible": 1,
        "announceInTitle": 0,
        "modified": 1785535756357,
        "id": "324aec5d-c272-44cd-ba10-278a701ee4c2",
        "name2": "3ha 43a 00ca",
        "fullscreenNameVisible": 1,
        "dimension": "minecraft:overworld",
        "name1": "12",
        "minimapVisible": 1,
        "fullscreenOwnerVisible": 0,
        "minimapOwnerVisible": 0
      },
      "geometry": {
        "type": "Polygon",
        "coordinates": [
          [
            [
              -436.0,
              528.0
            ],
            [
              -812.0,
              528.0
            ],
            [
              -808.0,
              517.0
            ],
            [
              -799.0,
              506.0
            ],
            [
              -789.0,
              499.0
            ],
            [
              -780.0,
              489.0
            ],
            [
              -772.0,
              478.0
            ],
            [
              -767.0,
              470.0
            ],
            [
              -760.0,
              466.0
            ],
            [
              -736.0,
              462.0
            ],
            [
              -724.0,
              456.0
            ],
            [
              -703.0,
              435.0
            ],
            [
              -691.0,
              428.0
            ],
            [
              -663.0,
              401.0
            ],
            [
              -660.0,
              393.0
            ],
            [
              -640.0,
              351.0
            ],
            [
              -630.0,
              332.0
            ],
            [
              -436.0,
              528.0
            ]
          ]
        ]
      }
    },
    {
      "type": "Feature",
      "properties": {
        "owner": {
          "UUID": "71882b98-712c-4bbf-86ea-858112fa6c6f",
          "username": "balrog329"
        },
        "visible": 1,
        "color": -32768,
        "chunks": [],
        "created": 1785537275309,
        "minimapNameVisible": 1,
        "personal": 0,
        "announceInChat": 0,
        "mode": "Vertex",
        "fullscreenVisible": 1,
        "announceInTitle": 0,
        "modified": 1785537649225,
        "id": "1abf0ae9-64dd-47c3-95a8-a1c684a7b2ef",
        "name2": "12ha 10a 60ca",
        "fullscreenNameVisible": 1,
        "dimension": "minecraft:overworld",
        "name1": "5",
        "minimapVisible": 1,
        "fullscreenOwnerVisible": 0,
        "minimapOwnerVisible": 0
      },
      "geometry": {
        "type": "Polygon",
        "coordinates": [
          [
            [
              -258.0,
              886.0
            ],
            [
              -270.0,
              890.0
            ],
            [
              -282.0,
              893.0
            ],
            [
              -468.0,
              893.0
            ],
            [
              -468.0,
              894.0
            ],
            [
              -500.0,
              894.0
            ],
            [
              -496.0,
              882.0
            ],
            [
              -489.0,
              868.0
            ],
            [
              -474.0,
              848.0
            ],
            [
              -463.0,
              830.0
            ],
            [
              -462.0,
              820.0
            ],
            [
              -467.0,
              814.0
            ],
            [
              -479.0,
              805.0
            ],
            [
              -484.0,
              800.0
            ],
            [
              -484.0,
              795.0
            ],
            [
              -483.0,
              791.0
            ],
            [
              -476.0,
              785.0
            ],
            [
              -465.0,
              780.0
            ],
            [
              -450.0,
              768.0
            ],
            [
              -447.0,
              761.0
            ],
            [
              -440.0,
              747.0
            ],
            [
              -431.0,
              738.0
            ],
            [
              -425.0,
              728.0
            ],
            [
              -424.0,
              719.0
            ],
            [
              -422.0,
              713.0
            ],
            [
              -418.0,
              710.0
            ],
            [
              -412.0,
              710.0
            ],
            [
              -402.0,
              704.0
            ],
            [
              -391.0,
              688.0
            ],
            [
              -379.0,
              677.0
            ],
            [
              -372.0,
              677.0
            ],
            [
              -369.0,
              652.0
            ],
            [
              -363.0,
              635.0
            ],
            [
              -350.0,
              618.0
            ],
            [
              -276.0,
              685.0
            ],
            [
              -269.0,
              697.0
            ],
            [
              -266.0,
              722.0
            ],
            [
              -266.0,
              758.0
            ],
            [
              -263.0,
              789.0
            ],
            [
              -260.0,
              842.0
            ],
            [
              -258.0,
              886.0
            ],
            [
              -246.0,
              877.0
            ],
            [
              -249.0,
              859.0
            ],
            [
              -251.0,
              811.0
            ],
            [
              -254.0,
              776.0
            ],
            [
              -258.0,
              691.0
            ],
            [
              -265.0,
              679.0
            ],
            [
              -306.0,
              638.0
            ],
            [
              -349.0,
              595.0
            ],
            [
              -341.0,
              577.0
            ],
            [
              -338.0,
              559.0
            ],
            [
              -326.0,
              547.0
            ],
            [
              -314.0,
              537.0
            ],
            [
              -308.0,
              524.0
            ],
            [
              -305.0,
              506.0
            ],
            [
              -297.0,
              489.0
            ],
            [
              -290.0,
              472.0
            ],
            [
              -286.0,
              447.0
            ],
            [
              -282.0,
              429.0
            ],
            [
              -272.0,
              413.0
            ],
            [
              -260.0,
              400.0
            ],
            [
              -253.0,
              396.0
            ],
            [
              -232.0,
              385.0
            ],
            [
              -207.0,
              374.0
            ],
            [
              -174.0,
              354.0
            ],
            [
              -154.0,
              336.0
            ],
            [
              -140.0,
              322.0
            ],
            [
              -40.0,
              216.0
            ],
            [
              -36.0,
              223.0
            ],
            [
              -144.0,
              342.0
            ],
            [
              -102.0,
              365.0
            ],
            [
              -79.0,
              387.0
            ],
            [
              -17.0,
              333.0
            ],
            [
              -11.0,
              345.0
            ],
            [
              -68.0,
              391.0
            ],
            [
              -75.0,
              401.0
            ],
            [
              -67.0,
              411.0
            ],
            [
              -66.0,
              446.0
            ],
            [
              -52.0,
              480.0
            ],
            [
              -51.0,
              505.0
            ],
            [
              -57.0,
              522.0
            ],
            [
              -68.0,
              539.0
            ],
            [
              -79.0,
              546.0
            ],
            [
              -239.0,
              640.0
            ],
            [
              -228.0,
              667.0
            ],
            [
              -217.0,
              687.0
            ],
            [
              -215.0,
              691.0
            ],
            [
              -225.0,
              695.0
            ],
            [
              -223.0,
              709.0
            ],
            [
              -215.0,
              737.0
            ],
            [
              -202.0,
              758.0
            ],
            [
              -156.0,
              723.0
            ],
            [
              -118.0,
              693.0
            ],
            [
              -79.0,
              646.0
            ],
            [
              -56.0,
              627.0
            ],
            [
              -40.0,
              630.0
            ],
            [
              -89.0,
              682.0
            ],
            [
              -125.0,
              734.0
            ],
            [
              -144.0,
              767.0
            ],
            [
              -155.0,
              792.0
            ],
            [
              -166.0,
              823.0
            ],
            [
              -179.0,
              842.0
            ],
            [
              -201.0,
              859.0
            ],
            [
              -232.0,
              872.0
            ],
            [
              -246.0,
              877.0
            ],
            [
              -258.0,
              886.0
            ]
          ]
        ]
      }
    },
    {
      "type": "Feature",
      "properties": {
        "owner": {
          "UUID": "71882b98-712c-4bbf-86ea-858112fa6c6f",
          "username": "balrog329"
        },
        "visible": 1,
        "color": -32768,
        "chunks": [],
        "created": 1785576566458,
        "minimapNameVisible": 1,
        "personal": 0,
        "announceInChat": 0,
        "mode": "Vertex",
        "fullscreenVisible": 1,
        "announceInTitle": 0,
        "modified": 1785576772317,
        "id": "64807a37-52f6-462a-87f5-99e2cc5d706f",
        "name2": "6ha 88a 74ca",
        "fullscreenNameVisible": 1,
        "dimension": "minecraft:overworld",
        "name1": "8",
        "minimapVisible": 1,
        "fullscreenOwnerVisible": 0,
        "minimapOwnerVisible": 0
      },
      "geometry": {
        "type": "Polygon",
        "coordinates": [
          [
            [
              -681.0,
              -85.0
            ],
            [
              -655.0,
              -81.0
            ],
            [
              -631.0,
              -96.0
            ],
            [
              -633.0,
              -120.0
            ],
            [
              -628.0,
              -144.0
            ],
            [
              -609.0,
              -161.0
            ],
            [
              -352.0,
              -159.0
            ],
            [
              -326.0,
              -126.0
            ],
            [
              -304.0,
              -109.0
            ],
            [
              -303.0,
              -100.0
            ],
            [
              -314.0,
              -94.0
            ],
            [
              -342.0,
              -83.0
            ],
            [
              -349.0,
              -77.0
            ],
            [
              -337.0,
              -54.0
            ],
            [
              -335.0,
              -33.0
            ],
            [
              -328.0,
              -15.0
            ],
            [
              -344.0,
              -4.0
            ],
            [
              -361.0,
              6.0
            ],
            [
              -375.0,
              9.0
            ],
            [
              -394.0,
              9.0
            ],
            [
              -414.0,
              4.0
            ],
            [
              -436.0,
              -5.0
            ],
            [
              -480.0,
              -29.0
            ],
            [
              -510.0,
              -42.0
            ],
            [
              -528.0,
              -43.0
            ],
            [
              -541.0,
              -35.0
            ],
            [
              -558.0,
              -18.0
            ],
            [
              -567.0,
              5.0
            ],
            [
              -589.0,
              31.0
            ],
            [
              -611.0,
              47.0
            ],
            [
              -635.0,
              68.0
            ],
            [
              -651.0,
              101.0
            ],
            [
              -658.0,
              128.0
            ],
            [
              -663.0,
              136.0
            ],
            [
              -669.0,
              142.0
            ],
            [
              -688.0,
              146.0
            ],
            [
              -688.0,
              158.0
            ],
            [
              -681.0,
              158.0
            ],
            [
              -664.0,
              152.0
            ],
            [
              -654.0,
              141.0
            ],
            [
              -642.0,
              118.0
            ],
            [
              -633.0,
              95.0
            ],
            [
              -624.0,
              77.0
            ],
            [
              -612.0,
              61.0
            ],
            [
              -594.0,
              48.0
            ],
            [
              -574.0,
              29.0
            ],
            [
              -532.0,
              -25.0
            ],
            [
              -523.0,
              -29.0
            ],
            [
              -507.0,
              -29.0
            ],
            [
              -492.0,
              -24.0
            ],
            [
              -492.0,
              -11.0
            ],
            [
              -534.0,
              -9.0
            ],
            [
              -544.0,
              -4.0
            ],
            [
              -551.0,
              8.0
            ],
            [
              -556.0,
              21.0
            ],
            [
              -576.0,
              47.0
            ],
            [
              -595.0,
              73.0
            ],
            [
              -612.0,
              91.0
            ],
            [
              -624.0,
              112.0
            ],
            [
              -628.0,
              125.0
            ],
            [
              -626.0,
              137.0
            ],
            [
              -621.0,
              154.0
            ],
            [
              -611.0,
              169.0
            ],
            [
              -603.0,
              186.0
            ],
            [
              -597.0,
              203.0
            ],
            [
              -599.0,
              214.0
            ],
            [
              -603.0,
              223.0
            ],
            [
              -612.0,
              234.0
            ],
            [
              -620.0,
              239.0
            ],
            [
              -634.0,
              243.0
            ],
            [
              -646.0,
              241.0
            ],
            [
              -662.0,
              237.0
            ],
            [
              -675.0,
              223.0
            ],
            [
              -688.0,
              219.0
            ],
            [
              -688.0,
              -100.0
            ],
            [
              -681.0,
              -85.0
            ]
          ]
        ]
      }
    },
    {
      "type": "Feature",
      "properties": {
        "owner": {
          "UUID": "71882b98-712c-4bbf-86ea-858112fa6c6f",
          "username": "balrog329"
        },
        "visible": 1,
        "color": -32768,
        "chunks": [],
        "created": 1785537670776,
        "minimapNameVisible": 1,
        "personal": 0,
        "announceInChat": 0,
        "mode": "Vertex",
        "fullscreenVisible": 1,
        "announceInTitle": 0,
        "modified": 1785537827876,
        "id": "0de430e2-064d-4901-987a-e7ce8c11fe3f",
        "name2": "9ha 89a 56ca",
        "fullscreenNameVisible": 1,
        "dimension": "minecraft:overworld",
        "name1": "6",
        "minimapVisible": 1,
        "fullscreenOwnerVisible": 0,
        "minimapOwnerVisible": 0
      },
      "geometry": {
        "type": "Polygon",
        "coordinates": [
          [
            [
              -137.0,
              249.0
            ],
            [
              -146.0,
              281.0
            ],
            [
              -153.0,
              314.0
            ],
            [
              -154.0,
              336.0
            ],
            [
              -174.0,
              354.0
            ],
            [
              -207.0,
              374.0
            ],
            [
              -232.0,
              385.0
            ],
            [
              -260.0,
              400.0
            ],
            [
              -272.0,
              413.0
            ],
            [
              -282.0,
              429.0
            ],
            [
              -286.0,
              447.0
            ],
            [
              -290.0,
              472.0
            ],
            [
              -305.0,
              506.0
            ],
            [
              -308.0,
              524.0
            ],
            [
              -370.0,
              524.0
            ],
            [
              -365.0,
              545.0
            ],
            [
              -376.0,
              568.0
            ],
            [
              -640.0,
              308.0
            ],
            [
              -621.0,
              313.0
            ],
            [
              -610.0,
              305.0
            ],
            [
              -597.0,
              295.0
            ],
            [
              -581.0,
              285.0
            ],
            [
              -568.0,
              281.0
            ],
            [
              -560.0,
              274.0
            ],
            [
              -555.0,
              265.0
            ],
            [
              -504.0,
              256.0
            ],
            [
              -477.0,
              253.0
            ],
            [
              -455.0,
              244.0
            ],
            [
              -437.0,
              238.0
            ],
            [
              -416.0,
              237.0
            ],
            [
              -374.0,
              240.0
            ],
            [
              -336.0,
              243.0
            ],
            [
              -315.0,
              250.0
            ],
            [
              -300.0,
              257.0
            ],
            [
              -281.0,
              255.0
            ],
            [
              -258.0,
              253.0
            ],
            [
              -235.0,
              241.0
            ],
            [
              -228.0,
              218.0
            ],
            [
              -202.0,
              191.0
            ],
            [
              -192.0,
              166.0
            ],
            [
              -183.0,
              157.0
            ],
            [
              -149.0,
              150.0
            ],
            [
              -94.0,
              159.0
            ],
            [
              -96.0,
              196.0
            ],
            [
              -95.0,
              227.0
            ],
            [
              -112.0,
              235.0
            ],
            [
              -137.0,
              249.0
            ]
          ]
        ]
      }
    },
    {
      "type": "Feature",
      "properties": {
        "owner": {
          "UUID": "71882b98-712c-4bbf-86ea-858112fa6c6f",
          "username": "balrog329"
        },
        "visible": 1,
        "color": -32768,
        "chunks": [],
        "created": 1785535425315,
        "minimapNameVisible": 1,
        "personal": 0,
        "announceInChat": 0,
        "mode": "Vertex",
        "fullscreenVisible": 1,
        "announceInTitle": 0,
        "modified": 1785535618926,
        "id": "0ba3cfc8-35a3-4d15-bace-de74a806d7d4",
        "name2": "7ha 64a 55ca",
        "fullscreenNameVisible": 1,
        "dimension": "minecraft:overworld",
        "name1": "11",
        "minimapVisible": 1,
        "fullscreenOwnerVisible": 0,
        "minimapOwnerVisible": 0
      },
      "geometry": {
        "type": "Polygon",
        "coordinates": [
          [
            [
              -927.0,
              364.0
            ],
            [
              -901.0,
              352.0
            ],
            [
              -886.0,
              336.0
            ],
            [
              -874.0,
              307.0
            ],
            [
              -877.0,
              284.0
            ],
            [
              -889.0,
              261.0
            ],
            [
              -916.0,
              226.0
            ],
            [
              -832.0,
              225.0
            ],
            [
              -815.0,
              240.0
            ],
            [
              -814.0,
              255.0
            ],
            [
              -805.0,
              265.0
            ],
            [
              -789.0,
              285.0
            ],
            [
              -765.0,
              308.0
            ],
            [
              -750.0,
              317.0
            ],
            [
              -736.0,
              322.0
            ],
            [
              -641.0,
              323.0
            ],
            [
              -630.0,
              332.0
            ],
            [
              -640.0,
              351.0
            ],
            [
              -654.0,
              380.0
            ],
            [
              -660.0,
              393.0
            ],
            [
              -663.0,
              401.0
            ],
            [
              -678.0,
              416.0
            ],
            [
              -691.0,
              428.0
            ],
            [
              -703.0,
              435.0
            ],
            [
              -714.0,
              445.0
            ],
            [
              -724.0,
              456.0
            ],
            [
              -736.0,
              462.0
            ],
            [
              -747.0,
              464.0
            ],
            [
              -760.0,
              466.0
            ],
            [
              -767.0,
              470.0
            ],
            [
              -772.0,
              478.0
            ],
            [
              -780.0,
              489.0
            ],
            [
              -789.0,
              499.0
            ],
            [
              -799.0,
              506.0
            ],
            [
              -808.0,
              517.0
            ],
            [
              -812.0,
              528.0
            ],
            [
              -811.0,
              541.0
            ],
            [
              -808.0,
              548.0
            ],
            [
              -800.0,
              556.0
            ],
            [
              -800.0,
              688.0
            ],
            [
              -927.0,
              688.0
            ],
            [
              -927.0,
              364.0
            ],
            [
              -927.0,
              351.0
            ],
            [
              -927.0,
              233.0
            ],
            [
              -904.0,
              258.0
            ],
            [
              -888.0,
              290.0
            ],
            [
              -886.0,
              303.0
            ],
            [
              -894.0,
              323.0
            ],
            [
              -901.0,
              336.0
            ],
            [
              -917.0,
              348.0
            ],
            [
              -927.0,
              351.0
            ],
            [
              -927.0,
              364.0
            ]
          ]
        ]
      }
    },
    {
      "type": "Feature",
      "properties": {
        "owner": {
          "UUID": "71882b98-712c-4bbf-86ea-858112fa6c6f",
          "username": "balrog329"
        },
        "visible": 1,
        "color": -32768,
        "chunks": [],
        "created": 1785535157274,
        "minimapNameVisible": 1,
        "personal": 0,
        "announceInChat": 0,
        "mode": "Vertex",
        "fullscreenVisible": 1,
        "announceInTitle": 0,
        "modified": 1785842831269,
        "id": "a91a8fef-8f16-4495-abd4-bba95143c55e",
        "name2": "8ha 02a 72ca",
        "fullscreenNameVisible": 1,
        "dimension": "minecraft:overworld",
        "name1": "10",
        "minimapVisible": 1,
        "fullscreenOwnerVisible": 0,
        "minimapOwnerVisible": 0
      },
      "geometry": {
        "type": "Polygon",
        "coordinates": [
          [
            [
              -927.0,
              364.0
            ],
            [
              -927.0,
              688.0
            ],
            [
              -1120.0,
              688.0
            ],
            [
              -1121.0,
              356.0
            ],
            [
              -1121.0,
              349.0
            ],
            [
              -1120.0,
              284.0
            ],
            [
              -1108.0,
              280.0
            ],
            [
              -1073.0,
              272.0
            ],
            [
              -1042.0,
              269.0
            ],
            [
              -1016.0,
              266.0
            ],
            [
              -998.0,
              265.0
            ],
            [
              -972.0,
              254.0
            ],
            [
              -955.0,
              238.0
            ],
            [
              -948.0,
              234.0
            ],
            [
              -933.0,
              227.0
            ],
            [
              -927.0,
              233.0
            ],
            [
              -927.0,
              351.0
            ],
            [
              -941.0,
              354.0
            ],
            [
              -965.0,
              350.0
            ],
            [
              -987.0,
              344.0
            ],
            [
              -1000.0,
              341.0
            ],
            [
              -1014.0,
              338.0
            ],
            [
              -1022.0,
              336.0
            ],
            [
              -1038.0,
              332.0
            ],
            [
              -1063.0,
              328.0
            ],
            [
              -1084.0,
              328.0
            ],
            [
              -1103.0,
              333.0
            ],
            [
              -1113.0,
              343.0
            ],
            [
              -1121.0,
              349.0
            ],
            [
              -1121.0,
              356.0
            ],
            [
              -1114.0,
              351.0
            ],
            [
              -1095.0,
              339.0
            ],
            [
              -1074.0,
              337.0
            ],
            [
              -1016.0,
              349.0
            ],
            [
              -983.0,
              358.0
            ],
            [
              -947.0,
              364.0
            ],
            [
              -927.0,
              364.0
            ]
          ]
        ]
      }
    },
    {
      "type": "Feature",
      "properties": {
        "owner": {
          "UUID": "71882b98-712c-4bbf-86ea-858112fa6c6f",
          "username": "balrog329"
        },
        "visible": 1,
        "color": -32768,
        "chunks": [],
        "created": 1785536447844,
        "minimapNameVisible": 1,
        "personal": 0,
        "announceInChat": 0,
        "mode": "Vertex",
        "fullscreenVisible": 1,
        "announceInTitle": 0,
        "modified": 1785536590830,
        "id": "8e830fb1-70a2-48ad-82da-5fb21237343b",
        "name2": "4ha 77a 83ca",
        "fullscreenNameVisible": 1,
        "dimension": "minecraft:overworld",
        "name1": "3",
        "minimapVisible": 1,
        "fullscreenOwnerVisible": 0,
        "minimapOwnerVisible": 0
      },
      "geometry": {
        "type": "Polygon",
        "coordinates": [
          [
            [
              56.0,
              944.0
            ],
            [
              78.0,
              954.0
            ],
            [
              65.0,
              964.0
            ],
            [
              39.0,
              983.0
            ],
            [
              -4.0,
              1010.0
            ],
            [
              -37.0,
              1027.0
            ],
            [
              -84.0,
              1049.0
            ],
            [
              -130.0,
              1068.0
            ],
            [
              -190.0,
              1096.0
            ],
            [
              -242.0,
              1118.0
            ],
            [
              -242.0,
              1055.0
            ],
            [
              -244.0,
              891.0
            ],
            [
              -78.0,
              891.0
            ],
            [
              -69.0,
              876.0
            ],
            [
              -63.0,
              872.0
            ],
            [
              -21.0,
              868.0
            ],
            [
              -11.0,
              876.0
            ],
            [
              24.0,
              915.0
            ],
            [
              37.0,
              929.0
            ],
            [
              56.0,
              944.0
            ]
          ]
        ]
      }
    },
    {
      "type": "Feature",
      "properties": {
        "owner": {
          "UUID": "71882b98-712c-4bbf-86ea-858112fa6c6f",
          "username": "balrog329"
        },
        "visible": 0,
        "color": -32768,
        "chunks": [],
        "created": 1785534999510,
        "minimapNameVisible": 1,
        "personal": 0,
        "announceInChat": 0,
        "mode": "Vertex",
        "fullscreenVisible": 1,
        "announceInTitle": 0,
        "modified": 1785698435606,
        "id": "762d1526-bd43-4b54-9949-f95afc696858",
        "name2": "6ha 59a 29ca",
        "fullscreenNameVisible": 1,
        "dimension": "minecraft:overworld",
        "name1": "13",
        "minimapVisible": 1,
        "fullscreenOwnerVisible": 0,
        "minimapOwnerVisible": 0
      },
      "geometry": {
        "type": "Polygon",
        "coordinates": [
          [
            [
              -615.0,
              528.0
            ],
            [
              -436.0,
              528.0
            ],
            [
              -373.0,
              593.0
            ],
            [
              -378.0,
              612.0
            ],
            [
              -379.0,
              634.0
            ],
            [
              -378.0,
              646.0
            ],
            [
              -382.0,
              662.0
            ],
            [
              -379.0,
              677.0
            ],
            [
              -391.0,
              688.0
            ],
            [
              -800.0,
              688.0
            ],
            [
              -800.0,
              556.0
            ],
            [
              -808.0,
              548.0
            ],
            [
              -811.0,
              541.0
            ],
            [
              -812.0,
              528.0
            ],
            [
              -615.0,
              528.0
            ]
          ]
        ]
      }
    },
    {
      "type": "Feature",
      "properties": {
        "owner": {
          "UUID": "71882b98-712c-4bbf-86ea-858112fa6c6f",
          "username": "balrog329"
        },
        "visible": 0,
        "color": -32768,
        "chunks": [],
        "created": 1785534841338,
        "minimapNameVisible": 1,
        "personal": 0,
        "announceInChat": 0,
        "mode": "Vertex",
        "fullscreenVisible": 1,
        "announceInTitle": 0,
        "modified": 1785698364090,
        "id": "2840e67c-3b6a-4b46-b7da-47e94eebd297",
        "name2": "6ha 67a 75ca",
        "fullscreenNameVisible": 1,
        "dimension": "minecraft:overworld",
        "name1": "15",
        "minimapVisible": 1,
        "fullscreenOwnerVisible": 0,
        "minimapOwnerVisible": 0
      },
      "geometry": {
        "type": "Polygon",
        "coordinates": [
          [
            [
              -800.0,
              688.0
            ],
            [
              -800.0,
              897.0
            ],
            [
              -1119.0,
              897.0
            ],
            [
              -1120.0,
              688.0
            ],
            [
              -800.0,
              688.0
            ]
          ]
        ]
      }
    },
    {
      "type": "Feature",
      "properties": {
        "owner": {
          "UUID": "71882b98-712c-4bbf-86ea-858112fa6c6f",
          "username": "balrog329"
        },
        "visible": 1,
        "color": -8323328,
        "chunks": [],
        "created": 1785842797937,
        "minimapNameVisible": 1,
        "personal": 0,
        "announceInChat": 0,
        "mode": "Vertex",
        "fullscreenVisible": 1,
        "announceInTitle": 0,
        "modified": 1785843119046,
        "id": "178f5535-cf2b-4d55-a8dd-a6e5db2244a1",
        "name2": "1,5437",
        "fullscreenNameVisible": 1,
        "dimension": "minecraft:overworld",
        "name1": "Travaux P10",
        "minimapVisible": 1,
        "fullscreenOwnerVisible": 0,
        "minimapOwnerVisible": 0
      },
      "geometry": {
        "type": "Polygon",
        "coordinates": [
          [
            [
              -927.0,
              501.0
            ],
            [
              -954.0,
              497.0
            ],
            [
              -1015.0,
              635.0
            ],
            [
              -1027.0,
              635.0
            ],
            [
              -1042.0,
              635.0
            ],
            [
              -1042.0,
              656.0
            ],
            [
              -1059.0,
              656.0
            ],
            [
              -1087.0,
              656.0
            ],
            [
              -1086.0,
              662.0
            ],
            [
              -1074.0,
              671.0
            ],
            [
              -1065.0,
              688.0
            ],
            [
              -1103.0,
              688.0
            ],
            [
              -1103.0,
              618.0
            ],
            [
              -1088.0,
              618.0
            ],
            [
              -1087.0,
              656.0
            ],
            [
              -1059.0,
              656.0
            ],
            [
              -1059.0,
              618.0
            ],
            [
              -1042.0,
              618.0
            ],
            [
              -1042.0,
              635.0
            ],
            [
              -1027.0,
              635.0
            ],
            [
              -1027.0,
              603.0
            ],
            [
              -1015.0,
              603.0
            ],
            [
              -1015.0,
              635.0
            ],
            [
              -954.0,
              497.0
            ],
            [
              -971.0,
              483.0
            ],
            [
              -970.0,
              467.0
            ],
            [
              -971.0,
              450.0
            ],
            [
              -973.0,
              430.0
            ],
            [
              -977.0,
              420.0
            ],
            [
              -991.0,
              417.0
            ],
            [
              -1015.0,
              414.0
            ],
            [
              -1030.0,
              413.0
            ],
            [
              -1052.0,
              398.0
            ],
            [
              -1070.0,
              379.0
            ],
            [
              -1087.0,
              379.0
            ],
            [
              -1121.0,
              380.0
            ],
            [
              -1121.0,
              356.0
            ],
            [
              -1095.0,
              339.0
            ],
            [
              -1088.0,
              338.0
            ],
            [
              -1088.0,
              379.0
            ],
            [
              -1070.0,
              379.0
            ],
            [
              -1070.0,
              338.0
            ],
            [
              -1016.0,
              349.0
            ],
            [
              -983.0,
              358.0
            ],
            [
              -947.0,
              364.0
            ],
            [
              -927.0,
              364.0
            ],
            [
              -927.0,
              501.0
            ]
          ]
        ]
      }
    }
  ]
}